{
"type": "FeatureCollection",
"name": "bairros_simplificado",
"crs": { "type": "name", "properties": { "name": "urn:ogc:def:crs:OGC:1.3:CRS84" } },
"features": [
{ "type": "Feature", "properties": { "Name": "HÍPICA", "Description": "" }, "geometry": { "type": "Polygon", "coordinates": [ [ [ -51.174022, -30.136434, 0.0 ], [ -51.183841, -30.138073, 0.0 ], [ -51.186708, -30.135795, 0.0 ], [ -51.191438, -30.145534, 0.0 ], [ -51.19076, -30.158403, 0.0 ], [ -51.198469, -30.17167, 0.0 ], [ -51.192107, -30.172409, 0.0 ], [ -51.177619, -30.168914, 0.0 ], [ -51.169628, -30.172202, 0.0 ], [ -51.167416, -30.170814, 0.0 ], [ -51.166461, -30.166353, 0.0 ], [ -51.158599, -30.163121, 0.0 ], [ -51.161431, -30.158165, 0.0 ], [ -51.161314, -30.148209, 0.0 ], [ -51.162681, -30.144218, 0.0 ], [ -51.168776, -30.138035, 0.0 ], [ -51.174022, -30.136434, 0.0 ] ] ] } },
{ "type": "Feature", "properties": { "Name": "PASSO DAS PEDRAS", "Description": "" }, "geometry": { "type": "Polygon", "coordinates": [ [ [ -51.128581, -30.011611, 0.0 ], [ -51.130813, -30.01125, 0.0 ], [ -51.131613, -30.026559, 0.0 ], [ -51.1347, -30.031745, 0.0 ], [ -51.132981, -30.032225, 0.0 ], [ -51.120841, -30.030166, 0.0 ], [ -51.119167, -30.014992, 0.0 ], [ -51.128581, -30.011611, 0.0 ] ] ] } },
{ "type": "Feature", "properties": { "Name": "HIGIENÓPOLIS", "Description": "" }, "geometry": { "type": "Polygon", "coordinates": [ [ [ -51.178099, -30.019613, 0.0 ], [ -51.178821, -30.01077, 0.0 ], [ -51.191956, -30.01417, 0.0 ], [ -51.191844, -30.017699, 0.0 ], [ -51.186509, -30.017374, 0.0 ], [ -51.184565, -30.021948, 0.0 ], [ -51.178099, -30.019613, 0.0 ] ] ] } },
{ "type": "Feature", "properties": { "Name": "VILA IPIRANGA", "Description": "" }, "geometry": { "type": "Polygon", "coordinates": [ [ [ -51.146354, -30.027332, 0.0 ], [ -51.144987, -30.02666, 0.0 ], [ -51.144354, -30.019566, 0.0 ], [ -51.142371, -30.016429, 0.0 ], [ -51.143549, -30.015237, 0.0 ], [ -51.143017, -30.009929, 0.0 ], [ -51.150041, -30.010505, 0.0 ], [ -51.150272, -30.016994, 0.0 ], [ -51.161063, -30.018091, 0.0 ], [ -51.1615, -30.020346, 0.0 ], [ -51.154832, -30.020931, 0.0 ], [ -51.152675, -30.027383, 0.0 ], [ -51.146354, -30.027332, 0.0 ] ] ] } },
{ "type": "Feature", "properties": { "Name": "ARQUIPÉLAGO", "Description": "" }, "geometry": { "type": "Polygon", "coordinates": [ [ [ -51.293411, -30.056406, 0.0 ], [ -51.293394, -30.056363, 0.0 ], [ -51.293406, -30.056329, 0.0 ], [ -51.293445, -30.056391, 0.0 ], [ -51.293411, -30.056406, 0.0 ] ] ] } },
{ "type": "Feature", "properties": { "Name": "ARQUIPÉLAGO", "Description": "" }, "geometry": { "type": "Polygon", "coordinates": [ [ [ -51.294324, -30.055162, 0.0 ], [ -51.294335, -30.055617, 0.0 ], [ -51.293402, -30.056257, 0.0 ], [ -51.293418, -30.056025, 0.0 ], [ -51.294324, -30.055162, 0.0 ] ] ] } },
{ "type": "Feature", "properties": { "Name": "JARDIM SÃO PEDRO", "Description": "" }, "geometry": { "type": "Polygon", "coordinates": [ [ [ -51.164047, -29.996335, 0.0 ], [ -51.171658, -29.997106, 0.0 ], [ -51.171886, -30.003195, 0.0 ], [ -51.168694, -30.002819, 0.0 ], [ -51.166161, -30.011705, 0.0 ], [ -51.162266, -30.011013, 0.0 ], [ -51.163564, -30.005682, 0.0 ], [ -51.161607, -30.004258, 0.0 ], [ -51.164047, -29.996335, 0.0 ] ] ] } },
{ "type": "Feature", "properties": { "Name": "JARDIM FLORESTA", "Description": "" }, "geometry": { "type": "Polygon", "coordinates": [ [ [ -51.155294, -29.996817, 0.0 ], [ -51.155362, -29.995388, 0.0 ], [ -51.164047, -29.996335, 0.0 ], [ -51.162663, -30.003784, 0.0 ], [ -51.15486, -30.004086, 0.0 ], [ -51.155294, -29.996817, 0.0 ] ] ] } },
{ "type": "Feature", "properties": { "Name": "SANTA ROSA DE LIMA", "Description": "" }, "geometry": { "type": "Polygon", "coordinates": [ [ [ -51.088453, -29.979892, 0.0 ], [ -51.107887, -29.978364, 0.0 ], [ -51.107197, -29.983999, 0.0 ], [ -51.112383, -29.98617, 0.0 ], [ -51.112667, -29.994419, 0.0 ], [ -51.115275, -30.000606, 0.0 ], [ -51.101643, -30.00232, 0.0 ], [ -51.098553, -30.004953, 0.0 ], [ -51.097685, -29.999368, 0.0 ], [ -51.087768, -30.000478, 0.0 ], [ -51.088453, -29.979892, 0.0 ] ] ] } },
{ "type": "Feature", "properties": { "Name": "ANCHIETA", "Description": "" }, "geometry": { "type": "Polygon", "coordinates": [ [ [ -51.155187, -29.967106, 0.0 ], [ -51.156279, -29.964658, 0.0 ], [ -51.160469, -29.967384, 0.0 ], [ -51.164372, -29.96576, 0.0 ], [ -51.166497, -29.967536, 0.0 ], [ -51.176375, -29.967907, 0.0 ], [ -51.181611, -29.987276, 0.0 ], [ -51.18815, -29.994721, 0.0 ], [ -51.186619, -29.99773, 0.0 ], [ -51.188285, -30.000959, 0.0 ], [ -51.187398, -30.002623, 0.0 ], [ -51.171886, -30.003195, 0.0 ], [ -51.170768, -29.996193, 0.0 ], [ -51.155362, -29.995388, 0.0 ], [ -51.154587, -29.996771, 0.0 ], [ -51.155187, -29.967106, 0.0 ] ] ] } },
{ "type": "Feature", "properties": { "Name": "SÃO SEBASTIÃO", "Description": "" }, "geometry": { "type": "Polygon", "coordinates": [ [ [ -51.143017, -30.009929, 0.0 ], [ -51.137925, -30.005067, 0.0 ], [ -51.139821, -29.997833, 0.0 ], [ -51.147825, -29.997965, 0.0 ], [ -51.147258, -30.004226, 0.0 ], [ -51.148485, -30.004381, 0.0 ], [ -51.149044, -30.010528, 0.0 ], [ -51.143017, -30.009929, 0.0 ] ] ] } },
{ "type": "Feature", "properties": { "Name": "SARANDI", "Description": "" }, "geometry": { "type": "Polygon", "coordinates": [ [ [ -51.089041, -29.97998, 0.0 ], [ -51.08654, -29.971011, 0.0 ], [ -51.09026, -29.966766, 0.0 ], [ -51.088437, -29.964625, 0.0 ], [ -51.089194, -29.963608, 0.0 ], [ -51.092042, -29.963205, 0.0 ], [ -51.095664, -29.965994, 0.0 ], [ -51.100013, -29.964349, 0.0 ], [ -51.105792, -29.965096, 0.0 ], [ -51.112957, -29.958186, 0.0 ], [ -51.120403, -29.958094, 0.0 ], [ -51.125819, -29.954352, 0.0 ], [ -51.134156, -29.961075, 0.0 ], [ -51.140546, -29.957538, 0.0 ], [ -51.142926, -29.96073, 0.0 ], [ -51.147629, -29.95995, 0.0 ], [ -51.150036, -29.962432, 0.0 ], [ -51.150344, -29.965486, 0.0 ], [ -51.155187, -29.967106, 0.0 ], [ -51.155241, -29.998153, 0.0 ], [ -51.139821, -29.997833, 0.0 ], [ -51.137925, -30.005067, 0.0 ], [ -51.143017, -30.009929, 0.0 ], [ -51.128581, -30.011611, 0.0 ], [ -51.127659, -30.004719, 0.0 ], [ -51.11979, -30.005449, 0.0 ], [ -51.119948, -30.007456, 0.0 ], [ -51.117494, -30.007747, 0.0 ], [ -51.112667, -29.994419, 0.0 ], [ -51.112383, -29.98617, 0.0 ], [ -51.107197, -29.983999, 0.0 ], [ -51.107887, -29.978364, 0.0 ], [ -51.089041, -29.97998, 0.0 ] ] ] } },
{ "type": "Feature", "properties": { "Name": "EXTREMA", "Description": "" }, "geometry": { "type": "Polygon", "coordinates": [ [ [ -51.052184, -30.229676, 0.0 ], [ -51.047727, -30.223665, 0.0 ], [ -51.042091, -30.22026, 0.0 ], [ -51.041593, -30.218178, 0.0 ], [ -51.038667, -30.218787, 0.0 ], [ -51.031132, -30.216617, 0.0 ], [ -51.024822, -30.209265, 0.0 ], [ -51.016491, -30.204211, 0.0 ], [ -51.011421, -30.19608, 0.0 ], [ -51.041899, -30.184265, 0.0 ], [ -51.049396, -30.186806, 0.0 ], [ -51.055807, -30.191235, 0.0 ], [ -51.089369, -30.19619, 0.0 ], [ -51.091252, -30.201255, 0.0 ], [ -51.091783, -30.210689, 0.0 ], [ -51.085567, -30.209068, 0.0 ], [ -51.08761, -30.221861, 0.0 ], [ -51.079023, -30.223413, 0.0 ], [ -51.06018, -30.231865, 0.0 ], [ -51.055828, -30.228889, 0.0 ], [ -51.052184, -30.229676, 0.0 ] ] ] } },
{ "type": "Feature", "properties": { "Name": "SÃO CAETANO", "Description": "" }, "geometry": { "type": "Polygon", "coordinates": [ [ [ -51.067431, -30.17826, 0.0 ], [ -51.07361, -30.177042, 0.0 ], [ -51.082683, -30.178973, 0.0 ], [ -51.092924, -30.185756, 0.0 ], [ -51.094794, -30.188015, 0.0 ], [ -51.094021, -30.189688, 0.0 ], [ -51.101593, -30.197922, 0.0 ], [ -51.116409, -30.203956, 0.0 ], [ -51.10979, -30.211217, 0.0 ], [ -51.105676, -30.208513, 0.0 ], [ -51.091783, -30.210689, 0.0 ], [ -51.091252, -30.201255, 0.0 ], [ -51.089369, -30.19619, 0.0 ], [ -51.055807, -30.191235, 0.0 ], [ -51.053637, -30.189405, 0.0 ], [ -51.057404, -30.187723, 0.0 ], [ -51.06333, -30.181043, 0.0 ], [ -51.067781, -30.179381, 0.0 ], [ -51.067431, -30.17826, 0.0 ] ] ] } },
{ "type": "Feature", "properties": { "Name": "BELÉM NOVO", "Description": "" }, "geometry": { "type": "Polygon", "coordinates": [ [ [ -51.166018, -30.184069, 0.0 ], [ -51.167667, -30.182792, 0.0 ], [ -51.170224, -30.185631, 0.0 ], [ -51.175042, -30.183332, 0.0 ], [ -51.174664, -30.18552, 0.0 ], [ -51.18216, -30.184555, 0.0 ], [ -51.181945, -30.185762, 0.0 ], [ -51.189202, -30.190955, 0.0 ], [ -51.190818, -30.189936, 0.0 ], [ -51.197054, -30.195267, 0.0 ], [ -51.193877, -30.199622, 0.0 ], [ -51.195007, -30.206321, 0.0 ], [ -51.199991, -30.210127, 0.0 ], [ -51.194222, -30.213578, 0.0 ], [ -51.187764, -30.210885, 0.0 ], [ -51.186758, -30.212674, 0.0 ], [ -51.182573, -30.212711, 0.0 ], [ -51.177838, -30.219523, 0.0 ], [ -51.178007, -30.223444, 0.0 ], [ -51.182544, -30.232063, 0.0 ], [ -51.190736, -30.233229, 0.0 ], [ -51.192812, -30.234858, 0.0 ], [ -51.193692, -30.237099, 0.0 ], [ -51.191239, -30.239402, 0.0 ], [ -51.188491, -30.235836, 0.0 ], [ -51.184332, -30.235189, 0.0 ], [ -51.178994, -30.235495, 0.0 ], [ -51.170653, -30.239097, 0.0 ], [ -51.168986, -30.236872, 0.0 ], [ -51.16717, -30.237181, 0.0 ], [ -51.16589, -30.229378, 0.0 ], [ -51.153207, -30.213287, 0.0 ], [ -51.161709, -30.212772, 0.0 ], [ -51.15979, -30.209165, 0.0 ], [ -51.159902, -30.201208, 0.0 ], [ -51.162837, -30.195723, 0.0 ], [ -51.162264, -30.19256, 0.0 ], [ -51.159317, -30.189236, 0.0 ], [ -51.166018, -30.184069, 0.0 ] ] ] } },
{ "type": "Feature", "properties": { "Name": "ARQUIPÉLAGO", "Description": "" }, "geometry": { "type": "Polygon", "coordinates": [ [ [ -51.25172, -29.935094, 0.0 ], [ -51.26502, -29.937435, 0.0 ], [ -51.268146, -29.938937, 0.0 ], [ -51.268475, -29.940918, 0.0 ], [ -51.260841, -29.940805, 0.0 ], [ -51.254156, -29.943324, 0.0 ], [ -51.241845, -29.953232, 0.0 ], [ -51.237109, -29.958947, 0.0 ], [ -51.234109, -29.970839, 0.0 ], [ -51.235028, -29.995946, 0.0 ], [ -51.231992, -30.000753, 0.0 ], [ -51.230611, -29.996444, 0.0 ], [ -51.228526, -29.994948, 0.0 ], [ -51.225486, -29.996177, 0.0 ], [ -51.224289, -29.999612, 0.0 ], [ -51.228482, -30.010272, 0.0 ], [ -51.227482, -30.01023, 0.0 ], [ -51.222981, -30.001627, 0.0 ], [ -51.223933, -29.994451, 0.0 ], [ -51.222326, -29.984837, 0.0 ], [ -51.223781, -29.978171, 0.0 ], [ -51.230547, -29.966359, 0.0 ], [ -51.230279, -29.949468, 0.0 ], [ -51.234489, -29.941911, 0.0 ], [ -51.239694, -29.937427, 0.0 ], [ -51.25172, -29.935094, 0.0 ] ] ] } },
{ "type": "Feature", "properties": { "Name": "ARQUIPÉLAGO", "Description": "" }, "geometry": { "type": "Polygon", "coordinates": [ [ [ -51.261824, -30.012172, 0.0 ], [ -51.263517, -30.013871, 0.0 ], [ -51.266875, -30.028892, 0.0 ], [ -51.273836, -30.036372, 0.0 ], [ -51.27187, -30.03861, 0.0 ], [ -51.269717, -30.035123, 0.0 ], [ -51.259339, -30.033804, 0.0 ], [ -51.263021, -30.042419, 0.0 ], [ -51.261346, -30.045738, 0.0 ], [ -51.262151, -30.046973, 0.0 ], [ -51.260941, -30.047169, 0.0 ], [ -51.253447, -30.0421, 0.0 ], [ -51.250094, -30.03119, 0.0 ], [ -51.253229, -30.031595, 0.0 ], [ -51.251027, -30.029329, 0.0 ], [ -51.25879, -30.014422, 0.0 ], [ -51.261824, -30.012172, 0.0 ] ] ] } },
{ "type": "Feature", "properties": { "Name": "ARQUIPÉLAGO", "Description": "" }, "geometry": { "type": "Polygon", "coordinates": [ [ [ -51.217067, -29.978373, 0.0 ], [ -51.217075, -29.978332, 0.0 ], [ -51.217241, -29.978204, 0.0 ], [ -51.217246, -29.978468, 0.0 ], [ -51.217067, -29.978373, 0.0 ] ] ] } },
{ "type": "Feature", "properties": { "Name": "ARQUIPÉLAGO", "Description": "" }, "geometry": { "type": "Polygon", "coordinates": [ [ [ -51.216962, -29.9787, 0.0 ], [ -51.217003, -29.978735, 0.0 ], [ -51.216946, -29.978784, 0.0 ], [ -51.216915, -29.978717, 0.0 ], [ -51.216962, -29.9787, 0.0 ] ] ] } },
{ "type": "Feature", "properties": { "Name": "MORRO SANTANA", "Description": "" }, "geometry": { "type": "Polygon", "coordinates": [ [ [ -51.13612, -30.053986, 0.0 ], [ -51.125931, -30.053463, 0.0 ], [ -51.120058, -30.055402, 0.0 ], [ -51.107819, -30.050294, 0.0 ], [ -51.107078, -30.040991, 0.0 ], [ -51.112515, -30.038351, 0.0 ], [ -51.122363, -30.038664, 0.0 ], [ -51.120841, -30.030166, 0.0 ], [ -51.130891, -30.032392, 0.0 ], [ -51.1347, -30.031745, 0.0 ], [ -51.135747, -30.042582, 0.0 ], [ -51.137181, -30.042926, 0.0 ], [ -51.136101, -30.045449, 0.0 ], [ -51.139497, -30.048469, 0.0 ], [ -51.139571, -30.050289, 0.0 ], [ -51.13612, -30.053986, 0.0 ] ] ] } },
{ "type": "Feature", "properties": { "Name": "ARQUIPÉLAGO", "Description": "" }, "geometry": { "type": "Polygon", "coordinates": [ [ [ -51.234226, -30.004843, 0.0 ], [ -51.234376, -30.005332, 0.0 ], [ -51.23408, -30.006633, 0.0 ], [ -51.233423, -30.00616, 0.0 ], [ -51.234226, -30.004843, 0.0 ] ] ] } },
{ "type": "Feature", "properties": { "Name": "ARQUIPÉLAGO", "Description": "" }, "geometry": { "type": "Polygon", "coordinates": [ [ [ -51.291621, -30.056887, 0.0 ], [ -51.291655, -30.056967, 0.0 ], [ -51.29158, -30.057026, 0.0 ], [ -51.291512, -30.056917, 0.0 ], [ -51.291621, -30.056887, 0.0 ] ] ] } },
{ "type": "Feature", "properties": { "Name": "JARDIM DO SALSO", "Description": "" }, "geometry": { "type": "Polygon", "coordinates": [ [ [ -51.166346, -30.047764, 0.0 ], [ -51.166056, -30.046475, 0.0 ], [ -51.172303, -30.046033, 0.0 ], [ -51.172728, -30.049509, 0.0 ], [ -51.169151, -30.055756, 0.0 ], [ -51.15938, -30.055897, 0.0 ], [ -51.159566, -30.052117, 0.0 ], [ -51.164504, -30.052113, 0.0 ], [ -51.164794, -30.047655, 0.0 ], [ -51.166346, -30.047764, 0.0 ] ] ] } },
{ "type": "Feature", "properties": { "Name": "JARDIM CARVALHO", "Description": "" }, "geometry": { "type": "Polygon", "coordinates": [ [ [ -51.141673, -30.044021, 0.0 ], [ -51.149948, -30.04169, 0.0 ], [ -51.149546, -30.051276, 0.0 ], [ -51.15959, -30.051466, 0.0 ], [ -51.15938, -30.055897, 0.0 ], [ -51.15254, -30.058998, 0.0 ], [ -51.148762, -30.066286, 0.0 ], [ -51.142839, -30.068158, 0.0 ], [ -51.137577, -30.064054, 0.0 ], [ -51.13612, -30.053986, 0.0 ], [ -51.139571, -30.050289, 0.0 ], [ -51.139077, -30.047555, 0.0 ], [ -51.136101, -30.045449, 0.0 ], [ -51.137181, -30.042926, 0.0 ], [ -51.141673, -30.044021, 0.0 ] ] ] } },
{ "type": "Feature", "properties": { "Name": "BOM JESUS", "Description": "" }, "geometry": { "type": "Polygon", "coordinates": [ [ [ -51.169311, -30.040966, 0.0 ], [ -51.171707, -30.03972, 0.0 ], [ -51.172303, -30.046033, 0.0 ], [ -51.166056, -30.046475, 0.0 ], [ -51.166383, -30.047909, 0.0 ], [ -51.164894, -30.047429, 0.0 ], [ -51.164359, -30.04874, 0.0 ], [ -51.164504, -30.052113, 0.0 ], [ -51.149546, -30.051276, 0.0 ], [ -51.149948, -30.04169, 0.0 ], [ -51.162442, -30.039947, 0.0 ], [ -51.169311, -30.040966, 0.0 ] ] ] } },
{ "type": "Feature", "properties": { "Name": "PONTA GROSSA", "Description": "" }, "geometry": { "type": "Polygon", "coordinates": [ [ [ -51.183072, -30.169365, 0.0 ], [ -51.192185, -30.172418, 0.0 ], [ -51.201928, -30.171288, 0.0 ], [ -51.207086, -30.176064, 0.0 ], [ -51.219563, -30.172852, 0.0 ], [ -51.225007, -30.174857, 0.0 ], [ -51.232733, -30.182754, 0.0 ], [ -51.237285, -30.183408, 0.0 ], [ -51.241889, -30.181691, 0.0 ], [ -51.248751, -30.186061, 0.0 ], [ -51.239597, -30.190339, 0.0 ], [ -51.225218, -30.187726, 0.0 ], [ -51.206662, -30.190312, 0.0 ], [ -51.199538, -30.192783, 0.0 ], [ -51.197186, -30.195578, 0.0 ], [ -51.190818, -30.189936, 0.0 ], [ -51.189202, -30.190955, 0.0 ], [ -51.181945, -30.185762, 0.0 ], [ -51.18216, -30.184555, 0.0 ], [ -51.174664, -30.18552, 0.0 ], [ -51.176492, -30.174849, 0.0 ], [ -51.180639, -30.169521, 0.0 ], [ -51.183072, -30.169365, 0.0 ] ] ] } },
{ "type": "Feature", "properties": { "Name": "CHAPÉU DO SOL", "Description": "" }, "geometry": { "type": "Polygon", "coordinates": [ [ [ -51.145336, -30.176095, 0.0 ], [ -51.158223, -30.162024, 0.0 ], [ -51.159853, -30.164236, 0.0 ], [ -51.166461, -30.166353, 0.0 ], [ -51.167416, -30.170814, 0.0 ], [ -51.169541, -30.172178, 0.0 ], [ -51.177298, -30.168985, 0.0 ], [ -51.180639, -30.169521, 0.0 ], [ -51.176373, -30.175106, 0.0 ], [ -51.175175, -30.183357, 0.0 ], [ -51.170224, -30.185631, 0.0 ], [ -51.167667, -30.182792, 0.0 ], [ -51.159317, -30.189236, 0.0 ], [ -51.157396, -30.186827, 0.0 ], [ -51.151003, -30.18655, 0.0 ], [ -51.146192, -30.183971, 0.0 ], [ -51.140634, -30.183263, 0.0 ], [ -51.145336, -30.176095, 0.0 ] ] ] } },
{ "type": "Feature", "properties": { "Name": "SERRARIA", "Description": "" }, "geometry": { "type": "Polygon", "coordinates": [ [ [ -51.227321, -30.158878, 0.0 ], [ -51.229504, -30.162669, 0.0 ], [ -51.232507, -30.16221, 0.0 ], [ -51.233358, -30.163713, 0.0 ], [ -51.226255, -30.168506, 0.0 ], [ -51.227106, -30.176446, 0.0 ], [ -51.219149, -30.172792, 0.0 ], [ -51.206723, -30.176017, 0.0 ], [ -51.202234, -30.171417, 0.0 ], [ -51.201385, -30.167409, 0.0 ], [ -51.208131, -30.168286, 0.0 ], [ -51.206507, -30.163929, 0.0 ], [ -51.21837, -30.163094, 0.0 ], [ -51.222592, -30.159566, 0.0 ], [ -51.227321, -30.158878, 0.0 ] ] ] } },
{ "type": "Feature", "properties": { "Name": "GUARUJÁ", "Description": "" }, "geometry": { "type": "Polygon", "coordinates": [ [ [ -51.210713, -30.155029, 0.0 ], [ -51.220438, -30.152163, 0.0 ], [ -51.225191, -30.152381, 0.0 ], [ -51.227211, -30.158852, 0.0 ], [ -51.222592, -30.159566, 0.0 ], [ -51.21837, -30.163094, 0.0 ], [ -51.206507, -30.163929, 0.0 ], [ -51.208109, -30.156889, 0.0 ], [ -51.210713, -30.155029, 0.0 ] ] ] } },
{ "type": "Feature", "properties": { "Name": "ABERTA DOS MORROS", "Description": "" }, "geometry": { "type": "Polygon", "coordinates": [ [ [ -51.198469, -30.17167, 0.0 ], [ -51.19076, -30.158403, 0.0 ], [ -51.191438, -30.145534, 0.0 ], [ -51.204207, -30.147238, 0.0 ], [ -51.20999, -30.150727, 0.0 ], [ -51.210713, -30.155029, 0.0 ], [ -51.208109, -30.156889, 0.0 ], [ -51.206507, -30.163929, 0.0 ], [ -51.208131, -30.168286, 0.0 ], [ -51.201385, -30.167409, 0.0 ], [ -51.202234, -30.171417, 0.0 ], [ -51.198469, -30.17167, 0.0 ] ] ] } },
{ "type": "Feature", "properties": { "Name": "ESPÍRITO SANTO", "Description": "" }, "geometry": { "type": "Polygon", "coordinates": [ [ [ -51.225477, -30.147201, 0.0 ], [ -51.225191, -30.152381, 0.0 ], [ -51.220438, -30.152163, 0.0 ], [ -51.210713, -30.155029, 0.0 ], [ -51.20999, -30.150727, 0.0 ], [ -51.20441, -30.147748, 0.0 ], [ -51.209426, -30.146977, 0.0 ], [ -51.218111, -30.142306, 0.0 ], [ -51.225477, -30.147201, 0.0 ] ] ] } },
{ "type": "Feature", "properties": { "Name": "PARQUE SANTA FÉ", "Description": "" }, "geometry": { "type": "Polygon", "coordinates": [ [ [ -51.098714, -30.004897, 0.0 ], [ -51.101643, -30.00232, 0.0 ], [ -51.109825, -30.002148, 0.0 ], [ -51.112301, -30.01523, 0.0 ], [ -51.105279, -30.016232, 0.0 ], [ -51.099913, -30.014525, 0.0 ], [ -51.098714, -30.004897, 0.0 ] ] ] } },
{ "type": "Feature", "properties": { "Name": "COSTA E SILVA", "Description": "" }, "geometry": { "type": "Polygon", "coordinates": [ [ [ -51.109825, -30.002148, 0.0 ], [ -51.115275, -30.000606, 0.0 ], [ -51.117494, -30.007747, 0.0 ], [ -51.119948, -30.007456, 0.0 ], [ -51.11979, -30.005449, 0.0 ], [ -51.127659, -30.004719, 0.0 ], [ -51.128581, -30.011611, 0.0 ], [ -51.120677, -30.014748, 0.0 ], [ -51.112301, -30.01523, 0.0 ], [ -51.109825, -30.002148, 0.0 ] ] ] } },
{ "type": "Feature", "properties": { "Name": "RUBEM BERTA", "Description": "" }, "geometry": { "type": "Polygon", "coordinates": [ [ [ -51.0946, -30.020154, 0.0 ], [ -51.0869, -30.022319, 0.0 ], [ -51.088507, -30.018455, 0.0 ], [ -51.092517, -30.01765, 0.0 ], [ -51.094386, -30.015555, 0.0 ], [ -51.092922, -30.010429, 0.0 ], [ -51.087545, -30.00407, 0.0 ], [ -51.087768, -30.000478, 0.0 ], [ -51.097685, -29.999368, 0.0 ], [ -51.099354, -30.01408, 0.0 ], [ -51.106931, -30.016312, 0.0 ], [ -51.107849, -30.027198, 0.0 ], [ -51.101002, -30.025668, 0.0 ], [ -51.100262, -30.020411, 0.0 ], [ -51.0946, -30.020154, 0.0 ] ] ] } },
{ "type": "Feature", "properties": { "Name": "JARDIM LINDÓIA", "Description": "" }, "geometry": { "type": "Polygon", "coordinates": [ [ [ -51.149044, -30.010528, 0.0 ], [ -51.148485, -30.004381, 0.0 ], [ -51.147258, -30.004226, 0.0 ], [ -51.147825, -29.997965, 0.0 ], [ -51.155241, -29.998153, 0.0 ], [ -51.154185, -30.010413, 0.0 ], [ -51.149044, -30.010528, 0.0 ] ] ] } },
{ "type": "Feature", "properties": { "Name": "SANTA MARIA GORETTI", "Description": "" }, "geometry": { "type": "Polygon", "coordinates": [ [ [ -51.16776, -30.007695, 0.0 ], [ -51.168694, -30.002819, 0.0 ], [ -51.182697, -30.003233, 0.0 ], [ -51.182485, -30.008516, 0.0 ], [ -51.16776, -30.007695, 0.0 ] ] ] } },
{ "type": "Feature", "properties": { "Name": "CAMPO NOVO", "Description": "" }, "geometry": { "type": "Polygon", "coordinates": [ [ [ -51.186708, -30.135795, 0.0 ], [ -51.189782, -30.13243, 0.0 ], [ -51.200141, -30.127667, 0.0 ], [ -51.21337, -30.132265, 0.0 ], [ -51.213141, -30.135375, 0.0 ], [ -51.207296, -30.13468, 0.0 ], [ -51.206744, -30.136072, 0.0 ], [ -51.20929, -30.142562, 0.0 ], [ -51.206152, -30.143795, 0.0 ], [ -51.20952, -30.146792, 0.0 ], [ -51.207565, -30.147475, 0.0 ], [ -51.191438, -30.145534, 0.0 ], [ -51.186708, -30.135795, 0.0 ] ] ] } },
{ "type": "Feature", "properties": { "Name": "LAGEADO", "Description": "" }, "geometry": { "type": "Polygon", "coordinates": [ [ [ -51.088531, -30.17547, 0.0 ], [ -51.114047, -30.161979, 0.0 ], [ -51.122508, -30.169997, 0.0 ], [ -51.143073, -30.168841, 0.0 ], [ -51.140354, -30.175551, 0.0 ], [ -51.145336, -30.176095, 0.0 ], [ -51.140634, -30.183263, 0.0 ], [ -51.146192, -30.183971, 0.0 ], [ -51.151003, -30.18655, 0.0 ], [ -51.157516, -30.186878, 0.0 ], [ -51.162264, -30.19256, 0.0 ], [ -51.162781, -30.196398, 0.0 ], [ -51.159902, -30.201208, 0.0 ], [ -51.15979, -30.209165, 0.0 ], [ -51.161709, -30.212772, 0.0 ], [ -51.151612, -30.212829, 0.0 ], [ -51.146026, -30.210462, 0.0 ], [ -51.143946, -30.2045, 0.0 ], [ -51.13593, -30.205702, 0.0 ], [ -51.126864, -30.198782, 0.0 ], [ -51.11497, -30.203723, 0.0 ], [ -51.102928, -30.198723, 0.0 ], [ -51.096721, -30.193376, 0.0 ], [ -51.092694, -30.185532, 0.0 ], [ -51.082723, -30.179047, 0.0 ], [ -51.088531, -30.17547, 0.0 ] ] ] } },
{ "type": "Feature", "properties": { "Name": "PITINGA", "Description": "" }, "geometry": { "type": "Polygon", "coordinates": [ [ [ -51.088531, -30.17547, 0.0 ], [ -51.094401, -30.145098, 0.0 ], [ -51.097665, -30.13644, 0.0 ], [ -51.103057, -30.132822, 0.0 ], [ -51.110717, -30.141155, 0.0 ], [ -51.118153, -30.138366, 0.0 ], [ -51.127855, -30.137717, 0.0 ], [ -51.114047, -30.161979, 0.0 ], [ -51.088531, -30.17547, 0.0 ] ] ] } },
{ "type": "Feature", "properties": { "Name": "RESTINGA", "Description": "" }, "geometry": { "type": "Polygon", "coordinates": [ [ [ -51.127855, -30.137717, 0.0 ], [ -51.141952, -30.132254, 0.0 ], [ -51.139664, -30.126442, 0.0 ], [ -51.142311, -30.120035, 0.0 ], [ -51.146964, -30.117673, 0.0 ], [ -51.152432, -30.120743, 0.0 ], [ -51.157587, -30.119959, 0.0 ], [ -51.164266, -30.125281, 0.0 ], [ -51.1735, -30.124528, 0.0 ], [ -51.176268, -30.128153, 0.0 ], [ -51.174757, -30.135741, 0.0 ], [ -51.168776, -30.138035, 0.0 ], [ -51.162638, -30.144295, 0.0 ], [ -51.161431, -30.158165, 0.0 ], [ -51.159783, -30.161003, 0.0 ], [ -51.155896, -30.16334, 0.0 ], [ -51.153964, -30.167905, 0.0 ], [ -51.145336, -30.176095, 0.0 ], [ -51.140354, -30.175551, 0.0 ], [ -51.143073, -30.168841, 0.0 ], [ -51.122508, -30.169997, 0.0 ], [ -51.114047, -30.161979, 0.0 ], [ -51.127855, -30.137717, 0.0 ] ] ] } },
{ "type": "Feature", "properties": { "Name": "LAMI", "Description": "" }, "geometry": { "type": "Polygon", "coordinates": [ [ [ -51.090953, -30.210935, 0.0 ], [ -51.105676, -30.208513, 0.0 ], [ -51.10979, -30.211217, 0.0 ], [ -51.101118, -30.218669, 0.0 ], [ -51.112933, -30.219881, 0.0 ], [ -51.114242, -30.231243, 0.0 ], [ -51.119903, -30.23443, 0.0 ], [ -51.119149, -30.245639, 0.0 ], [ -51.11346, -30.246259, 0.0 ], [ -51.105675, -30.251155, 0.0 ], [ -51.103979, -30.25456, 0.0 ], [ -51.106521, -30.258958, 0.0 ], [ -51.104015, -30.259959, 0.0 ], [ -51.099028, -30.257098, 0.0 ], [ -51.1014, -30.255958, 0.0 ], [ -51.101949, -30.249645, 0.0 ], [ -51.106334, -30.247835, 0.0 ], [ -51.107173, -30.242375, 0.0 ], [ -51.103804, -30.242694, 0.0 ], [ -51.105124, -30.244856, 0.0 ], [ -51.10277, -30.246186, 0.0 ], [ -51.100358, -30.243034, 0.0 ], [ -51.095483, -30.240983, 0.0 ], [ -51.083348, -30.241606, 0.0 ], [ -51.069516, -30.247261, 0.0 ], [ -51.06376, -30.254505, 0.0 ], [ -51.062678, -30.259529, 0.0 ], [ -51.053439, -30.259929, 0.0 ], [ -51.055205, -30.258602, 0.0 ], [ -51.053539, -30.257752, 0.0 ], [ -51.055422, -30.255078, 0.0 ], [ -51.054335, -30.251307, 0.0 ], [ -51.058581, -30.243247, 0.0 ], [ -51.058365, -30.239895, 0.0 ], [ -51.055288, -30.2371, 0.0 ], [ -51.054823, -30.233876, 0.0 ], [ -51.052455, -30.232555, 0.0 ], [ -51.052118, -30.229716, 0.0 ], [ -51.055828, -30.228889, 0.0 ], [ -51.06018, -30.231865, 0.0 ], [ -51.079023, -30.223413, 0.0 ], [ -51.08761, -30.221861, 0.0 ], [ -51.085567, -30.209068, 0.0 ], [ -51.090953, -30.210935, 0.0 ] ] ] } },
{ "type": "Feature", "properties": { "Name": "JARDIM ITU", "Description": "" }, "geometry": { "type": "Polygon", "coordinates": [ [ [ -51.130813, -30.01125, 0.0 ], [ -51.143017, -30.009929, 0.0 ], [ -51.143549, -30.015237, 0.0 ], [ -51.142371, -30.016429, 0.0 ], [ -51.144354, -30.019566, 0.0 ], [ -51.144987, -30.02666, 0.0 ], [ -51.146354, -30.027332, 0.0 ], [ -51.138793, -30.027558, 0.0 ], [ -51.13926, -30.029646, 0.0 ], [ -51.13329, -30.030306, 0.0 ], [ -51.131613, -30.026559, 0.0 ], [ -51.130813, -30.01125, 0.0 ] ] ] } },
{ "type": "Feature", "properties": { "Name": "PASSO DA AREIA", "Description": "" }, "geometry": { "type": "Polygon", "coordinates": [ [ [ -51.162266, -30.011013, 0.0 ], [ -51.166161, -30.011705, 0.0 ], [ -51.166997, -30.007554, 0.0 ], [ -51.181854, -30.00856, 0.0 ], [ -51.181792, -30.011531, 0.0 ], [ -51.178821, -30.01077, 0.0 ], [ -51.178099, -30.019613, 0.0 ], [ -51.171598, -30.018618, 0.0 ], [ -51.171201, -30.021883, 0.0 ], [ -51.16084, -30.019551, 0.0 ], [ -51.162266, -30.011013, 0.0 ] ] ] } },
{ "type": "Feature", "properties": { "Name": "CRISTO REDENTOR", "Description": "" }, "geometry": { "type": "Polygon", "coordinates": [ [ [ -51.150041, -30.010505, 0.0 ], [ -51.154185, -30.010413, 0.0 ], [ -51.15486, -30.004086, 0.0 ], [ -51.163524, -30.005482, 0.0 ], [ -51.161063, -30.018091, 0.0 ], [ -51.150272, -30.016994, 0.0 ], [ -51.150041, -30.010505, 0.0 ] ] ] } },
{ "type": "Feature", "properties": { "Name": "VILA JARDIM", "Description": "" }, "geometry": { "type": "Polygon", "coordinates": [ [ [ -51.147144, -30.027329, 0.0 ], [ -51.152815, -30.027303, 0.0 ], [ -51.155513, -30.030474, 0.0 ], [ -51.158694, -30.028441, 0.0 ], [ -51.159618, -30.033206, 0.0 ], [ -51.158026, -30.03781, 0.0 ], [ -51.159431, -30.040731, 0.0 ], [ -51.149747, -30.041737, 0.0 ], [ -51.147144, -30.027329, 0.0 ] ] ] } },
{ "type": "Feature", "properties": { "Name": "JARDIM EUROPA", "Description": "" }, "geometry": { "type": "Polygon", "coordinates": [ [ [ -51.1615, -30.020346, 0.0 ], [ -51.163915, -30.020591, 0.0 ], [ -51.16324, -30.02806, 0.0 ], [ -51.159291, -30.028185, 0.0 ], [ -51.155513, -30.030474, 0.0 ], [ -51.152815, -30.027303, 0.0 ], [ -51.154832, -30.020931, 0.0 ], [ -51.1615, -30.020346, 0.0 ] ] ] } },
{ "type": "Feature", "properties": { "Name": "MÁRIO QUINTANA", "Description": "" }, "geometry": { "type": "Polygon", "coordinates": [ [ [ -51.09848, -30.048361, 0.0 ], [ -51.095906, -30.050498, 0.0 ], [ -51.090091, -30.047283, 0.0 ], [ -51.084368, -30.047513, 0.0 ], [ -51.087785, -30.04109, 0.0 ], [ -51.086654, -30.038017, 0.0 ], [ -51.090296, -30.034258, 0.0 ], [ -51.08731, -30.028823, 0.0 ], [ -51.086512, -30.022663, 0.0 ], [ -51.094445, -30.02015, 0.0 ], [ -51.100262, -30.020411, 0.0 ], [ -51.101002, -30.025668, 0.0 ], [ -51.104464, -30.025808, 0.0 ], [ -51.104551, -30.027194, 0.0 ], [ -51.110263, -30.026552, 0.0 ], [ -51.110028, -30.023737, 0.0 ], [ -51.113266, -30.023501, 0.0 ], [ -51.114326, -30.026201, 0.0 ], [ -51.120153, -30.025763, 0.0 ], [ -51.122363, -30.038664, 0.0 ], [ -51.112515, -30.038351, 0.0 ], [ -51.107078, -30.040991, 0.0 ], [ -51.107819, -30.050294, 0.0 ], [ -51.09848, -30.048361, 0.0 ] ] ] } },
{ "type": "Feature", "properties": { "Name": "BOA VISTA", "Description": "" }, "geometry": { "type": "Polygon", "coordinates": [ [ [ -51.163915, -30.020591, 0.0 ], [ -51.171201, -30.021883, 0.0 ], [ -51.171598, -30.018618, 0.0 ], [ -51.175316, -30.018478, 0.0 ], [ -51.184567, -30.021948, 0.0 ], [ -51.18091, -30.029487, 0.0 ], [ -51.173647, -30.02748, 0.0 ], [ -51.16324, -30.02806, 0.0 ], [ -51.163915, -30.020591, 0.0 ] ] ] } },
{ "type": "Feature", "properties": { "Name": "JARDIM LEOPOLDINA", "Description": "" }, "geometry": { "type": "Polygon", "coordinates": [ [ [ -51.112301, -30.01523, 0.0 ], [ -51.119167, -30.014992, 0.0 ], [ -51.120153, -30.025763, 0.0 ], [ -51.114326, -30.026201, 0.0 ], [ -51.113266, -30.023501, 0.0 ], [ -51.110028, -30.023737, 0.0 ], [ -51.110263, -30.026552, 0.0 ], [ -51.107975, -30.026028, 0.0 ], [ -51.106931, -30.016312, 0.0 ], [ -51.112301, -30.01523, 0.0 ] ] ] } },
{ "type": "Feature", "properties": { "Name": "FARROUPILHA", "Description": "" }, "geometry": { "type": "Polygon", "coordinates": [ [ [ -51.208968, -30.036794, 0.0 ], [ -51.220523, -30.032333, 0.0 ], [ -51.22159, -30.033976, 0.0 ], [ -51.216381, -30.041186, 0.0 ], [ -51.208968, -30.036794, 0.0 ] ] ] } },
{ "type": "Feature", "properties": { "Name": "ARQUIPÉLAGO", "Description": "" }, "geometry": { "type": "Polygon", "coordinates": [ [ [ -51.294396, -30.054605, 0.0 ], [ -51.29446, -30.054663, 0.0 ], [ -51.294335, -30.054694, 0.0 ], [ -51.294347, -30.054612, 0.0 ], [ -51.294396, -30.054605, 0.0 ] ] ] } },
{ "type": "Feature", "properties": { "Name": "ARQUIPÉLAGO", "Description": "" }, "geometry": { "type": "Polygon", "coordinates": [ [ [ -51.263929, -30.050649, 0.0 ], [ -51.264226, -30.050795, 0.0 ], [ -51.264206, -30.05096, 0.0 ], [ -51.263942, -30.050978, 0.0 ], [ -51.263929, -30.050649, 0.0 ] ] ] } },
{ "type": "Feature", "properties": { "Name": "ARQUIPÉLAGO", "Description": "" }, "geometry": { "type": "Polygon", "coordinates": [ [ [ -51.263446, -30.049942, 0.0 ], [ -51.263569, -30.050067, 0.0 ], [ -51.263439, -30.050127, 0.0 ], [ -51.263355, -30.050012, 0.0 ], [ -51.263446, -30.049942, 0.0 ] ] ] } },
{ "type": "Feature", "properties": { "Name": "ARQUIPÉLAGO", "Description": "" }, "geometry": { "type": "Polygon", "coordinates": [ [ [ -51.270626, -30.059652, 0.0 ], [ -51.270623, -30.059897, 0.0 ], [ -51.270381, -30.060005, 0.0 ], [ -51.27041, -30.059785, 0.0 ], [ -51.270626, -30.059652, 0.0 ] ] ] } },
{ "type": "Feature", "properties": { "Name": "ARQUIPÉLAGO", "Description": "" }, "geometry": { "type": "Polygon", "coordinates": [ [ [ -51.271574, -30.058563, 0.0 ], [ -51.271914, -30.058716, 0.0 ], [ -51.270996, -30.059456, 0.0 ], [ -51.270769, -30.058856, 0.0 ], [ -51.271574, -30.058563, 0.0 ] ] ] } },
{ "type": "Feature", "properties": { "Name": "ARQUIPÉLAGO", "Description": "" }, "geometry": { "type": "Polygon", "coordinates": [ [ [ -51.271755, -30.057827, 0.0 ], [ -51.271919, -30.058397, 0.0 ], [ -51.271097, -30.058467, 0.0 ], [ -51.271296, -30.058063, 0.0 ], [ -51.271755, -30.057827, 0.0 ] ] ] } },
{ "type": "Feature", "properties": { "Name": "ARQUIPÉLAGO", "Description": "" }, "geometry": { "type": "Polygon", "coordinates": [ [ [ -51.271171, -30.057378, 0.0 ], [ -51.271309, -30.056842, 0.0 ], [ -51.271751, -30.057374, 0.0 ], [ -51.271536, -30.057533, 0.0 ], [ -51.271171, -30.057378, 0.0 ] ] ] } },
{ "type": "Feature", "properties": { "Name": "ARQUIPÉLAGO", "Description": "" }, "geometry": { "type": "Polygon", "coordinates": [ [ [ -51.254815, -30.044499, 0.0 ], [ -51.262177, -30.048009, 0.0 ], [ -51.26554, -30.053532, 0.0 ], [ -51.270964, -30.054763, 0.0 ], [ -51.271425, -30.056445, 0.0 ], [ -51.26653, -30.057197, 0.0 ], [ -51.266877, -30.055561, 0.0 ], [ -51.262545, -30.053557, 0.0 ], [ -51.254815, -30.044499, 0.0 ] ] ] } },
{ "type": "Feature", "properties": { "Name": "FLORESTA", "Description": "" }, "geometry": { "type": "Polygon", "coordinates": [ [ [ -51.196753, -30.016217, 0.0 ], [ -51.21113, -30.012376, 0.0 ], [ -51.210631, -30.011267, 0.0 ], [ -51.212829, -30.010353, 0.0 ], [ -51.219723, -30.019728, 0.0 ], [ -51.217911, -30.021129, 0.0 ], [ -51.219503, -30.027934, 0.0 ], [ -51.215602, -30.027666, 0.0 ], [ -51.205388, -30.018405, 0.0 ], [ -51.197681, -30.017922, 0.0 ], [ -51.196753, -30.016217, 0.0 ] ] ] } },
{ "type": "Feature", "properties": { "Name": "MONTSERRAT", "Description": "" }, "geometry": { "type": "Polygon", "coordinates": [ [ [ -51.181837, -30.027336, 0.0 ], [ -51.183624, -30.023792, 0.0 ], [ -51.196575, -30.024825, 0.0 ], [ -51.195874, -30.029284, 0.0 ], [ -51.189573, -30.031295, 0.0 ], [ -51.181837, -30.027336, 0.0 ] ] ] } },
{ "type": "Feature", "properties": { "Name": "CENTRO HISTÓRICO", "Description": "" }, "geometry": { "type": "Polygon", "coordinates": [ [ [ -51.219503, -30.027934, 0.0 ], [ -51.217911, -30.021129, 0.0 ], [ -51.220929, -30.020852, 0.0 ], [ -51.220982, -30.022764, 0.0 ], [ -51.222265, -30.022017, 0.0 ], [ -51.223588, -30.024019, 0.0 ], [ -51.22455, -30.023342, 0.0 ], [ -51.225693, -30.025042, 0.0 ], [ -51.241007, -30.031561, 0.0 ], [ -51.2426, -30.035087, 0.0 ], [ -51.239563, -30.036977, 0.0 ], [ -51.227678, -30.038608, 0.0 ], [ -51.220678, -30.034248, 0.0 ], [ -51.219503, -30.027934, 0.0 ] ] ] } },
{ "type": "Feature", "properties": { "Name": "SÃO GERALDO", "Description": "" }, "geometry": { "type": "Polygon", "coordinates": [ [ [ -51.193768, -30.007436, 0.0 ], [ -51.20932, -30.002695, 0.0 ], [ -51.212829, -30.010353, 0.0 ], [ -51.210631, -30.011267, 0.0 ], [ -51.21113, -30.012376, 0.0 ], [ -51.196753, -30.016217, 0.0 ], [ -51.192496, -30.009335, 0.0 ], [ -51.192047, -30.007956, 0.0 ], [ -51.193768, -30.007436, 0.0 ] ] ] } },
{ "type": "Feature", "properties": { "Name": "SÃO JOÃO", "Description": "" }, "geometry": { "type": "Polygon", "coordinates": [ [ [ -51.182697, -30.003233, 0.0 ], [ -51.187398, -30.002623, 0.0 ], [ -51.188285, -30.000959, 0.0 ], [ -51.186619, -29.99773, 0.0 ], [ -51.18815, -29.994721, 0.0 ], [ -51.193768, -30.007436, 0.0 ], [ -51.192047, -30.007956, 0.0 ], [ -51.192496, -30.009335, 0.0 ], [ -51.197681, -30.017922, 0.0 ], [ -51.191844, -30.017699, 0.0 ], [ -51.191956, -30.01417, 0.0 ], [ -51.181792, -30.011531, 0.0 ], [ -51.182697, -30.003233, 0.0 ] ] ] } },
{ "type": "Feature", "properties": { "Name": "NAVEGANTES", "Description": "" }, "geometry": { "type": "Polygon", "coordinates": [ [ [ -51.20198, -29.988688, 0.0 ], [ -51.205215, -29.988229, 0.0 ], [ -51.20932, -30.002695, 0.0 ], [ -51.193768, -30.007436, 0.0 ], [ -51.189767, -29.996373, 0.0 ], [ -51.199549, -29.997238, 0.0 ], [ -51.198344, -29.993272, 0.0 ], [ -51.196404, -29.993736, 0.0 ], [ -51.195887, -29.992091, 0.0 ], [ -51.19753, -29.989617, 0.0 ], [ -51.20198, -29.988688, 0.0 ] ] ] } },
{ "type": "Feature", "properties": { "Name": "FARRAPOS", "Description": "" }, "geometry": { "type": "Polygon", "coordinates": [ [ [ -51.199973, -29.971928, 0.0 ], [ -51.203076, -29.976754, 0.0 ], [ -51.202624, -29.983812, 0.0 ], [ -51.204821, -29.988016, 0.0 ], [ -51.19753, -29.989617, 0.0 ], [ -51.195887, -29.992091, 0.0 ], [ -51.18937, -29.968872, 0.0 ], [ -51.199973, -29.971928, 0.0 ] ] ] } },
{ "type": "Feature", "properties": { "Name": "HUMAITÁ", "Description": "" }, "geometry": { "type": "Polygon", "coordinates": [ [ [ -51.181964, -29.968911, 0.0 ], [ -51.18937, -29.968872, 0.0 ], [ -51.195646, -29.991645, 0.0 ], [ -51.196404, -29.993736, 0.0 ], [ -51.198344, -29.993272, 0.0 ], [ -51.199549, -29.997238, 0.0 ], [ -51.190465, -29.996592, 0.0 ], [ -51.18211, -29.988223, 0.0 ], [ -51.176375, -29.967907, 0.0 ], [ -51.181964, -29.968911, 0.0 ] ] ] } },
{ "type": "Feature", "properties": { "Name": "PARTENON", "Description": "" }, "geometry": { "type": "Polygon", "coordinates": [ [ [ -51.180603, -30.059044, 0.0 ], [ -51.192332, -30.053812, 0.0 ], [ -51.196524, -30.048442, 0.0 ], [ -51.204702, -30.052796, 0.0 ], [ -51.195146, -30.058099, 0.0 ], [ -51.199188, -30.065212, 0.0 ], [ -51.201901, -30.064722, 0.0 ], [ -51.203284, -30.068294, 0.0 ], [ -51.199706, -30.073431, 0.0 ], [ -51.190155, -30.071433, 0.0 ], [ -51.186269, -30.064446, 0.0 ], [ -51.179912, -30.067149, 0.0 ], [ -51.180129, -30.064333, 0.0 ], [ -51.177699, -30.062507, 0.0 ], [ -51.169242, -30.061593, 0.0 ], [ -51.161488, -30.062574, 0.0 ], [ -51.159118, -30.07516, 0.0 ], [ -51.15699, -30.077273, 0.0 ], [ -51.148751, -30.075456, 0.0 ], [ -51.151689, -30.068109, 0.0 ], [ -51.150191, -30.063978, 0.0 ], [ -51.153777, -30.058063, 0.0 ], [ -51.159847, -30.055824, 0.0 ], [ -51.170906, -30.055748, 0.0 ], [ -51.180603, -30.059044, 0.0 ] ] ] } },
{ "type": "Feature", "properties": { "Name": "ARQUIPÉLAGO", "Description": "" }, "geometry": { "type": "Polygon", "coordinates": [ [ [ -51.294443, -30.054243, 0.0 ], [ -51.294597, -30.054466, 0.0 ], [ -51.294516, -30.054562, 0.0 ], [ -51.294229, -30.054439, 0.0 ], [ -51.294443, -30.054243, 0.0 ] ] ] } },
{ "type": "Feature", "properties": { "Name": "ARQUIPÉLAGO", "Description": "" }, "geometry": { "type": "Polygon", "coordinates": [ [ [ -51.225401, -30.011845, 0.0 ], [ -51.229258, -30.014508, 0.0 ], [ -51.231261, -30.01769, 0.0 ], [ -51.22819, -30.01681, 0.0 ], [ -51.226553, -30.018769, 0.0 ], [ -51.225401, -30.011845, 0.0 ] ] ] } },
{ "type": "Feature", "properties": { "Name": "ARQUIPÉLAGO", "Description": "" }, "geometry": { "type": "Polygon", "coordinates": [ [ [ -51.233777, -30.008302, 0.0 ], [ -51.234507, -30.009746, 0.0 ], [ -51.234126, -30.011138, 0.0 ], [ -51.23363, -30.008921, 0.0 ], [ -51.233777, -30.008302, 0.0 ] ] ] } },
{ "type": "Feature", "properties": { "Name": "ARQUIPÉLAGO", "Description": "" }, "geometry": { "type": "Polygon", "coordinates": [ [ [ -51.233533, -30.007149, 0.0 ], [ -51.233727, -30.007272, 0.0 ], [ -51.233594, -30.007897, 0.0 ], [ -51.233392, -30.007452, 0.0 ], [ -51.233533, -30.007149, 0.0 ] ] ] } },
{ "type": "Feature", "properties": { "Name": "ARQUIPÉLAGO", "Description": "" }, "geometry": { "type": "Polygon", "coordinates": [ [ [ -51.237822, -30.003691, 0.0 ], [ -51.250332, -30.008952, 0.0 ], [ -51.26086, -30.006407, 0.0 ], [ -51.253691, -30.014482, 0.0 ], [ -51.252515, -30.020643, 0.0 ], [ -51.249244, -30.024814, 0.0 ], [ -51.247518, -30.023088, 0.0 ], [ -51.249113, -30.021047, 0.0 ], [ -51.248455, -30.019246, 0.0 ], [ -51.245551, -30.018919, 0.0 ], [ -51.243691, -30.022052, 0.0 ], [ -51.241261, -30.020861, 0.0 ], [ -51.239994, -30.022187, 0.0 ], [ -51.239014, -30.020596, 0.0 ], [ -51.238613, -30.015234, 0.0 ], [ -51.245038, -30.009268, 0.0 ], [ -51.243371, -30.007137, 0.0 ], [ -51.236658, -30.007657, 0.0 ], [ -51.234418, -30.004723, 0.0 ], [ -51.237822, -30.003691, 0.0 ] ] ] } },
{ "type": "Feature", "properties": { "Name": "ARQUIPÉLAGO", "Description": "" }, "geometry": { "type": "Polygon", "coordinates": [ [ [ -51.290292, -30.058435, 0.0 ], [ -51.291969, -30.064056, 0.0 ], [ -51.290811, -30.064841, 0.0 ], [ -51.286876, -30.06326, 0.0 ], [ -51.285775, -30.060259, 0.0 ], [ -51.286266, -30.058865, 0.0 ], [ -51.288635, -30.060342, 0.0 ], [ -51.290292, -30.058435, 0.0 ] ] ] } },
{ "type": "Feature", "properties": { "Name": "ARQUIPÉLAGO", "Description": "" }, "geometry": { "type": "Polygon", "coordinates": [ [ [ -51.293197, -30.056508, 0.0 ], [ -51.293261, -30.056514, 0.0 ], [ -51.29326, -30.056726, 0.0 ], [ -51.293056, -30.057362, 0.0 ], [ -51.293143, -30.057517, 0.0 ], [ -51.292949, -30.05767, 0.0 ], [ -51.293045, -30.058228, 0.0 ], [ -51.292695, -30.058446, 0.0 ], [ -51.293197, -30.056508, 0.0 ] ] ] } },
{ "type": "Feature", "properties": { "Name": "SÉTIMO CÉU", "Description": "" }, "geometry": { "type": "Polygon", "coordinates": [ [ [ -51.230449, -30.123432, 0.0 ], [ -51.232874, -30.119423, 0.0 ], [ -51.232355, -30.116225, 0.0 ], [ -51.234752, -30.113684, 0.0 ], [ -51.248718, -30.119035, 0.0 ], [ -51.250792, -30.115956, 0.0 ], [ -51.253457, -30.116925, 0.0 ], [ -51.252087, -30.122807, 0.0 ], [ -51.249865, -30.122847, 0.0 ], [ -51.249625, -30.12125, 0.0 ], [ -51.241863, -30.124805, 0.0 ], [ -51.230449, -30.123432, 0.0 ] ] ] } },
{ "type": "Feature", "properties": { "Name": "VILA  ASSUNÇÃO", "Description": "" }, "geometry": { "type": "Polygon", "coordinates": [ [ [ -51.256627, -30.094501, 0.0 ], [ -51.257181, -30.094568, 0.0 ], [ -51.257813, -30.094862, 0.0 ], [ -51.258193, -30.095229, 0.0 ], [ -51.258778, -30.096158, 0.0 ], [ -51.265025, -30.098618, 0.0 ], [ -51.267634, -30.103692, 0.0 ], [ -51.261207, -30.105977, 0.0 ], [ -51.251313, -30.103073, 0.0 ], [ -51.249262, -30.101025, 0.0 ], [ -51.251864, -30.095364, 0.0 ], [ -51.258605, -30.096043, 0.0 ], [ -51.256627, -30.094501, 0.0 ] ] ] } },
{ "type": "Feature", "properties": { "Name": "IPANEMA", "Description": "" }, "geometry": { "type": "Polygon", "coordinates": [ [ [ -51.240541, -30.131921, 0.0 ], [ -51.22836, -30.139584, 0.0 ], [ -51.225489, -30.147052, 0.0 ], [ -51.218111, -30.142306, 0.0 ], [ -51.20952, -30.146792, 0.0 ], [ -51.206112, -30.143951, 0.0 ], [ -51.20929, -30.142562, 0.0 ], [ -51.207296, -30.13468, 0.0 ], [ -51.213141, -30.135375, 0.0 ], [ -51.213284, -30.131875, 0.0 ], [ -51.223303, -30.131184, 0.0 ], [ -51.222587, -30.125959, 0.0 ], [ -51.223978, -30.124011, 0.0 ], [ -51.236087, -30.131294, 0.0 ], [ -51.238184, -30.130472, 0.0 ], [ -51.240541, -30.131921, 0.0 ] ] ] } },
{ "type": "Feature", "properties": { "Name": "JARDIM ISABEL", "Description": "" }, "geometry": { "type": "Polygon", "coordinates": [ [ [ -51.230449, -30.123432, 0.0 ], [ -51.240949, -30.124604, 0.0 ], [ -51.240208, -30.126426, 0.0 ], [ -51.242478, -30.127219, 0.0 ], [ -51.236087, -30.131294, 0.0 ], [ -51.229084, -30.12632, 0.0 ], [ -51.230449, -30.123432, 0.0 ] ] ] } },
{ "type": "Feature", "properties": { "Name": "PEDRA REDONDA", "Description": "" }, "geometry": { "type": "Polygon", "coordinates": [ [ [ -51.240873, -30.132093, 0.0 ], [ -51.238184, -30.130472, 0.0 ], [ -51.242478, -30.127219, 0.0 ], [ -51.240208, -30.126426, 0.0 ], [ -51.240949, -30.124604, 0.0 ], [ -51.249625, -30.12125, 0.0 ], [ -51.249865, -30.122847, 0.0 ], [ -51.261058, -30.122738, 0.0 ], [ -51.246653, -30.125274, 0.0 ], [ -51.244725, -30.127515, 0.0 ], [ -51.244927, -30.131289, 0.0 ], [ -51.240873, -30.132093, 0.0 ] ] ] } },
{ "type": "Feature", "properties": { "Name": "VILA CONCEIÇÃO", "Description": "" }, "geometry": { "type": "Polygon", "coordinates": [ [ [ -51.252328, -30.122721, 0.0 ], [ -51.253457, -30.116925, 0.0 ], [ -51.262176, -30.120195, 0.0 ], [ -51.261058, -30.122738, 0.0 ], [ -51.252328, -30.122721, 0.0 ] ] ] } },
{ "type": "Feature", "properties": { "Name": "CRISTAL", "Description": "" }, "geometry": { "type": "Polygon", "coordinates": [ [ [ -51.242305, -30.073049, 0.0 ], [ -51.250548, -30.081163, 0.0 ], [ -51.248109, -30.082685, 0.0 ], [ -51.250259, -30.092341, 0.0 ], [ -51.250991, -30.092671, 0.0 ], [ -51.252279, -30.094059, 0.0 ], [ -51.249971, -30.092674, 0.0 ], [ -51.251864, -30.095364, 0.0 ], [ -51.249262, -30.101025, 0.0 ], [ -51.248299, -30.097364, 0.0 ], [ -51.245989, -30.097614, 0.0 ], [ -51.245076, -30.100421, 0.0 ], [ -51.236602, -30.098306, 0.0 ], [ -51.237643, -30.0949, 0.0 ], [ -51.235264, -30.092239, 0.0 ], [ -51.231778, -30.093266, 0.0 ], [ -51.230323, -30.090571, 0.0 ], [ -51.226012, -30.08907, 0.0 ], [ -51.229547, -30.085081, 0.0 ], [ -51.232182, -30.084606, 0.0 ], [ -51.231073, -30.082836, 0.0 ], [ -51.234125, -30.08115, 0.0 ], [ -51.23505, -30.077662, 0.0 ], [ -51.239743, -30.076207, 0.0 ], [ -51.242305, -30.073049, 0.0 ] ] ] } },
{ "type": "Feature", "properties": { "Name": "CAMAQUÃ", "Description": "" }, "geometry": { "type": "Polygon", "coordinates": [ [ [ -51.234752, -30.113684, 0.0 ], [ -51.231398, -30.112299, 0.0 ], [ -51.232849, -30.110964, 0.0 ], [ -51.231452, -30.110303, 0.0 ], [ -51.235868, -30.098133, 0.0 ], [ -51.245076, -30.100421, 0.0 ], [ -51.244642, -30.102845, 0.0 ], [ -51.247089, -30.103449, 0.0 ], [ -51.241342, -30.116143, 0.0 ], [ -51.234752, -30.113684, 0.0 ] ] ] } },
{ "type": "Feature", "properties": { "Name": "CAVALHADA", "Description": "" }, "geometry": { "type": "Polygon", "coordinates": [ [ [ -51.231778, -30.093266, 0.0 ], [ -51.235264, -30.092239, 0.0 ], [ -51.23768, -30.095076, 0.0 ], [ -51.231452, -30.110303, 0.0 ], [ -51.232849, -30.110964, 0.0 ], [ -51.231398, -30.112299, 0.0 ], [ -51.234752, -30.113684, 0.0 ], [ -51.232301, -30.116351, 0.0 ], [ -51.23268, -30.120068, 0.0 ], [ -51.229263, -30.126296, 0.0 ], [ -51.22366, -30.12426, 0.0 ], [ -51.223303, -30.131184, 0.0 ], [ -51.213284, -30.131875, 0.0 ], [ -51.212204, -30.131023, 0.0 ], [ -51.21329, -30.126661, 0.0 ], [ -51.220018, -30.126879, 0.0 ], [ -51.226328, -30.113949, 0.0 ], [ -51.226922, -30.110595, 0.0 ], [ -51.224731, -30.109371, 0.0 ], [ -51.219022, -30.110429, 0.0 ], [ -51.222089, -30.1073, 0.0 ], [ -51.22525, -30.099977, 0.0 ], [ -51.224724, -30.096828, 0.0 ], [ -51.225876, -30.095072, 0.0 ], [ -51.231778, -30.093266, 0.0 ] ] ] } },
{ "type": "Feature", "properties": { "Name": "BOM FIM", "Description": "" }, "geometry": { "type": "Polygon", "coordinates": [ [ [ -51.208323, -30.036947, 0.0 ], [ -51.208475, -30.03022, 0.0 ], [ -51.219438, -30.030563, 0.0 ], [ -51.220523, -30.032333, 0.0 ], [ -51.208323, -30.036947, 0.0 ] ] ] } },
{ "type": "Feature", "properties": { "Name": "PETRÓPOLIS", "Description": "" }, "geometry": { "type": "Polygon", "coordinates": [ [ [ -51.173861, -30.038253, 0.0 ], [ -51.18091, -30.029487, 0.0 ], [ -51.182091, -30.029823, 0.0 ], [ -51.187695, -30.037454, 0.0 ], [ -51.195882, -30.038962, 0.0 ], [ -51.197826, -30.046579, 0.0 ], [ -51.195142, -30.050424, 0.0 ], [ -51.190056, -30.048984, 0.0 ], [ -51.184529, -30.050658, 0.0 ], [ -51.183657, -30.046508, 0.0 ], [ -51.172486, -30.047596, 0.0 ], [ -51.171707, -30.03972, 0.0 ], [ -51.173861, -30.038253, 0.0 ] ] ] } },
{ "type": "Feature", "properties": { "Name": "RIO BRANCO", "Description": "" }, "geometry": { "type": "Polygon", "coordinates": [ [ [ -51.195874, -30.029284, 0.0 ], [ -51.208515, -30.028996, 0.0 ], [ -51.208323, -30.036947, 0.0 ], [ -51.195908, -30.040289, 0.0 ], [ -51.195874, -30.029284, 0.0 ] ] ] } },
{ "type": "Feature", "properties": { "Name": "BELA VISTA", "Description": "" }, "geometry": { "type": "Polygon", "coordinates": [ [ [ -51.18091, -30.029487, 0.0 ], [ -51.181837, -30.027336, 0.0 ], [ -51.189573, -30.031295, 0.0 ], [ -51.195263, -30.028764, 0.0 ], [ -51.195882, -30.038962, 0.0 ], [ -51.187752, -30.03749, 0.0 ], [ -51.18091, -30.029487, 0.0 ] ] ] } },
{ "type": "Feature", "properties": { "Name": "INDEPENDÊNCIA", "Description": "" }, "geometry": { "type": "Polygon", "coordinates": [ [ [ -51.208515, -30.028996, 0.0 ], [ -51.210431, -30.023918, 0.0 ], [ -51.215602, -30.027666, 0.0 ], [ -51.219503, -30.027934, 0.0 ], [ -51.219438, -30.030563, 0.0 ], [ -51.208475, -30.03022, 0.0 ], [ -51.208515, -30.028996, 0.0 ] ] ] } },
{ "type": "Feature", "properties": { "Name": "MOINHOS DE VENTO", "Description": "" }, "geometry": { "type": "Polygon", "coordinates": [ [ [ -51.196575, -30.024825, 0.0 ], [ -51.197681, -30.017922, 0.0 ], [ -51.205351, -30.018386, 0.0 ], [ -51.210431, -30.023918, 0.0 ], [ -51.208515, -30.028996, 0.0 ], [ -51.19601, -30.028287, 0.0 ], [ -51.196575, -30.024825, 0.0 ] ] ] } },
{ "type": "Feature", "properties": { "Name": "AUXILIADORA", "Description": "" }, "geometry": { "type": "Polygon", "coordinates": [ [ [ -51.184565, -30.021948, 0.0 ], [ -51.186509, -30.017374, 0.0 ], [ -51.197681, -30.017922, 0.0 ], [ -51.196575, -30.024825, 0.0 ], [ -51.185131, -30.024347, 0.0 ], [ -51.183624, -30.023792, 0.0 ], [ -51.184565, -30.021948, 0.0 ] ] ] } },
{ "type": "Feature", "properties": { "Name": "TRISTEZA", "Description": "" }, "geometry": { "type": "Polygon", "coordinates": [ [ [ -51.259786, -30.110458, 0.0 ], [ -51.258674, -30.11154, 0.0 ], [ -51.262176, -30.120195, 0.0 ], [ -51.250792, -30.115956, 0.0 ], [ -51.248718, -30.119035, 0.0 ], [ -51.241342, -30.116143, 0.0 ], [ -51.247089, -30.103449, 0.0 ], [ -51.244642, -30.102845, 0.0 ], [ -51.245989, -30.097614, 0.0 ], [ -51.248299, -30.097364, 0.0 ], [ -51.248778, -30.100616, 0.0 ], [ -51.251947, -30.103482, 0.0 ], [ -51.261207, -30.105977, 0.0 ], [ -51.258585, -30.110578, 0.0 ], [ -51.260032, -30.11033, 0.0 ], [ -51.262385, -30.110698, 0.0 ], [ -51.26247, -30.108768, 0.0 ], [ -51.26471, -30.109377, 0.0 ], [ -51.260885, -30.112392, 0.0 ], [ -51.259786, -30.110458, 0.0 ] ] ] } },
{ "type": "Feature", "properties": { "Name": "VILA NOVA", "Description": "" }, "geometry": { "type": "Polygon", "coordinates": [ [ [ -51.17571, -30.13367, 0.0 ], [ -51.181429, -30.127901, 0.0 ], [ -51.185865, -30.127086, 0.0 ], [ -51.193986, -30.122164, 0.0 ], [ -51.192013, -30.118345, 0.0 ], [ -51.184247, -30.117538, 0.0 ], [ -51.185222, -30.113888, 0.0 ], [ -51.178, -30.096681, 0.0 ], [ -51.187083, -30.101667, 0.0 ], [ -51.220279, -30.103381, 0.0 ], [ -51.222844, -30.104692, 0.0 ], [ -51.219022, -30.110429, 0.0 ], [ -51.224562, -30.109333, 0.0 ], [ -51.226922, -30.110595, 0.0 ], [ -51.224125, -30.119988, 0.0 ], [ -51.220018, -30.126879, 0.0 ], [ -51.21329, -30.126661, 0.0 ], [ -51.212204, -30.131023, 0.0 ], [ -51.206804, -30.130944, 0.0 ], [ -51.201962, -30.127437, 0.0 ], [ -51.199866, -30.127709, 0.0 ], [ -51.189714, -30.132473, 0.0 ], [ -51.183792, -30.138076, 0.0 ], [ -51.174241, -30.136567, 0.0 ], [ -51.17571, -30.13367, 0.0 ] ] ] } },
{ "type": "Feature", "properties": { "Name": "BELÉM VELHO", "Description": "" }, "geometry": { "type": "Polygon", "coordinates": [ [ [ -51.153975, -30.100807, 0.0 ], [ -51.168279, -30.1015, 0.0 ], [ -51.178, -30.096681, 0.0 ], [ -51.185222, -30.113888, 0.0 ], [ -51.184247, -30.117538, 0.0 ], [ -51.192013, -30.118345, 0.0 ], [ -51.193986, -30.122164, 0.0 ], [ -51.185865, -30.127086, 0.0 ], [ -51.181429, -30.127901, 0.0 ], [ -51.17571, -30.13367, 0.0 ], [ -51.176268, -30.128153, 0.0 ], [ -51.173581, -30.12456, 0.0 ], [ -51.164266, -30.125281, 0.0 ], [ -51.157587, -30.119959, 0.0 ], [ -51.152432, -30.120743, 0.0 ], [ -51.147342, -30.117707, 0.0 ], [ -51.148995, -30.103225, 0.0 ], [ -51.153975, -30.100807, 0.0 ] ] ] } },
{ "type": "Feature", "properties": { "Name": "CASCATA", "Description": "" }, "geometry": { "type": "Polygon", "coordinates": [ [ [ -51.163407, -30.087533, 0.0 ], [ -51.169714, -30.088085, 0.0 ], [ -51.182725, -30.079555, 0.0 ], [ -51.185941, -30.085004, 0.0 ], [ -51.184958, -30.088611, 0.0 ], [ -51.192884, -30.094238, 0.0 ], [ -51.190732, -30.101491, 0.0 ], [ -51.186994, -30.101642, 0.0 ], [ -51.178, -30.096681, 0.0 ], [ -51.168279, -30.1015, 0.0 ], [ -51.153975, -30.100807, 0.0 ], [ -51.152263, -30.092675, 0.0 ], [ -51.163407, -30.087533, 0.0 ] ] ] } },
{ "type": "Feature", "properties": { "Name": "NONOAI", "Description": "" }, "geometry": { "type": "Polygon", "coordinates": [ [ [ -51.21276, -30.103118, 0.0 ], [ -51.208259, -30.097816, 0.0 ], [ -51.202714, -30.094391, 0.0 ], [ -51.202293, -30.091041, 0.0 ], [ -51.213848, -30.083527, 0.0 ], [ -51.215358, -30.080759, 0.0 ], [ -51.213791, -30.079604, 0.0 ], [ -51.214559, -30.076738, 0.0 ], [ -51.227959, -30.086689, 0.0 ], [ -51.226012, -30.08907, 0.0 ], [ -51.230323, -30.090571, 0.0 ], [ -51.231778, -30.093266, 0.0 ], [ -51.225635, -30.095252, 0.0 ], [ -51.222844, -30.104692, 0.0 ], [ -51.21276, -30.103118, 0.0 ] ] ] } },
{ "type": "Feature", "properties": { "Name": "TERESÓPOLIS", "Description": "" }, "geometry": { "type": "Polygon", "coordinates": [ [ [ -51.207117, -30.070305, 0.0 ], [ -51.21118, -30.070078, 0.0 ], [ -51.210435, -30.072474, 0.0 ], [ -51.214827, -30.074659, 0.0 ], [ -51.213791, -30.079604, 0.0 ], [ -51.215358, -30.080759, 0.0 ], [ -51.213848, -30.083527, 0.0 ], [ -51.203045, -30.090081, 0.0 ], [ -51.202714, -30.094391, 0.0 ], [ -51.208259, -30.097816, 0.0 ], [ -51.21276, -30.103118, 0.0 ], [ -51.190732, -30.101491, 0.0 ], [ -51.19307, -30.093771, 0.0 ], [ -51.200758, -30.085162, 0.0 ], [ -51.197634, -30.082649, 0.0 ], [ -51.206607, -30.07767, 0.0 ], [ -51.203754, -30.074657, 0.0 ], [ -51.207117, -30.070305, 0.0 ] ] ] } },
{ "type": "Feature", "properties": { "Name": "GLÓRIA", "Description": "" }, "geometry": { "type": "Polygon", "coordinates": [ [ [ -51.199892, -30.072919, 0.0 ], [ -51.201875, -30.068905, 0.0 ], [ -51.207117, -30.070305, 0.0 ], [ -51.203754, -30.074657, 0.0 ], [ -51.206607, -30.07767, 0.0 ], [ -51.197634, -30.082649, 0.0 ], [ -51.200758, -30.085162, 0.0 ], [ -51.192884, -30.094238, 0.0 ], [ -51.184958, -30.088611, 0.0 ], [ -51.185941, -30.085004, 0.0 ], [ -51.182725, -30.079555, 0.0 ], [ -51.187224, -30.073452, 0.0 ], [ -51.191463, -30.074252, 0.0 ], [ -51.193004, -30.072147, 0.0 ], [ -51.199892, -30.072919, 0.0 ] ] ] } },
{ "type": "Feature", "properties": { "Name": "CEL. APARICIO BORGES", "Description": "" }, "geometry": { "type": "Polygon", "coordinates": [ [ [ -51.179532, -30.071446, 0.0 ], [ -51.180883, -30.07055, 0.0 ], [ -51.17908, -30.06899, 0.0 ], [ -51.179912, -30.067149, 0.0 ], [ -51.186269, -30.064446, 0.0 ], [ -51.189204, -30.070416, 0.0 ], [ -51.193004, -30.072147, 0.0 ], [ -51.191463, -30.074252, 0.0 ], [ -51.187224, -30.073452, 0.0 ], [ -51.182725, -30.079555, 0.0 ], [ -51.169714, -30.088085, 0.0 ], [ -51.163407, -30.087533, 0.0 ], [ -51.163849, -30.081205, 0.0 ], [ -51.165744, -30.078446, 0.0 ], [ -51.171072, -30.078208, 0.0 ], [ -51.171861, -30.075657, 0.0 ], [ -51.174475, -30.07556, 0.0 ], [ -51.174463, -30.074034, 0.0 ], [ -51.179532, -30.071446, 0.0 ] ] ] } },
{ "type": "Feature", "properties": { "Name": "VILA JOÃO PESSOA", "Description": "" }, "geometry": { "type": "Polygon", "coordinates": [ [ [ -51.171824, -30.061788, 0.0 ], [ -51.177424, -30.062395, 0.0 ], [ -51.180129, -30.064333, 0.0 ], [ -51.180347, -30.068414, 0.0 ], [ -51.17908, -30.06899, 0.0 ], [ -51.180883, -30.07055, 0.0 ], [ -51.174463, -30.074034, 0.0 ], [ -51.174475, -30.07556, 0.0 ], [ -51.171861, -30.075657, 0.0 ], [ -51.171072, -30.078208, 0.0 ], [ -51.169194, -30.077724, 0.0 ], [ -51.171665, -30.07308, 0.0 ], [ -51.172457, -30.067608, 0.0 ], [ -51.170778, -30.069619, 0.0 ], [ -51.1699, -30.068716, 0.0 ], [ -51.171824, -30.061788, 0.0 ] ] ] } },
{ "type": "Feature", "properties": { "Name": "VILA SÃO JOSÉ", "Description": "" }, "geometry": { "type": "Polygon", "coordinates": [ [ [ -51.163805, -30.062199, 0.0 ], [ -51.171202, -30.061761, 0.0 ], [ -51.1699, -30.068716, 0.0 ], [ -51.170778, -30.069619, 0.0 ], [ -51.172457, -30.067608, 0.0 ], [ -51.170382, -30.076576, 0.0 ], [ -51.16652, -30.077885, 0.0 ], [ -51.164015, -30.080825, 0.0 ], [ -51.163407, -30.087533, 0.0 ], [ -51.152263, -30.092675, 0.0 ], [ -51.157154, -30.07655, 0.0 ], [ -51.159118, -30.07516, 0.0 ], [ -51.161488, -30.062574, 0.0 ], [ -51.163805, -30.062199, 0.0 ] ] ] } },
{ "type": "Feature", "properties": { "Name": "AGRONOMIA", "Description": "" }, "geometry": { "type": "Polygon", "coordinates": [ [ [ -51.112468, -30.074266, 0.0 ], [ -51.113235, -30.072696, 0.0 ], [ -51.117107, -30.072869, 0.0 ], [ -51.118065, -30.067675, 0.0 ], [ -51.120115, -30.066818, 0.0 ], [ -51.120459, -30.061621, 0.0 ], [ -51.117995, -30.061101, 0.0 ], [ -51.119098, -30.060079, 0.0 ], [ -51.118271, -30.057023, 0.0 ], [ -51.120058, -30.055402, 0.0 ], [ -51.125931, -30.053463, 0.0 ], [ -51.13612, -30.053986, 0.0 ], [ -51.138439, -30.065368, 0.0 ], [ -51.143179, -30.068132, 0.0 ], [ -51.147979, -30.066762, 0.0 ], [ -51.150191, -30.063978, 0.0 ], [ -51.151689, -30.068109, 0.0 ], [ -51.148751, -30.075456, 0.0 ], [ -51.15699, -30.077273, 0.0 ], [ -51.152263, -30.092675, 0.0 ], [ -51.148738, -30.090961, 0.0 ], [ -51.147856, -30.092537, 0.0 ], [ -51.139123, -30.084893, 0.0 ], [ -51.136547, -30.084545, 0.0 ], [ -51.137338, -30.081829, 0.0 ], [ -51.13585, -30.079915, 0.0 ], [ -51.137793, -30.076491, 0.0 ], [ -51.136721, -30.07552, 0.0 ], [ -51.122845, -30.076892, 0.0 ], [ -51.112229, -30.080213, 0.0 ], [ -51.109153, -30.078057, 0.0 ], [ -51.112468, -30.074266, 0.0 ] ] ] } },
{ "type": "Feature", "properties": { "Name": "LOMBA DO PINHEIRO", "Description": "" }, "geometry": { "type": "Polygon", "coordinates": [ [ [ -51.078521, -30.17741, 0.0 ], [ -51.076177, -30.172038, 0.0 ], [ -51.076902, -30.166625, 0.0 ], [ -51.079466, -30.163828, 0.0 ], [ -51.078645, -30.160119, 0.0 ], [ -51.089034, -30.151031, 0.0 ], [ -51.085613, -30.143133, 0.0 ], [ -51.087678, -30.140535, 0.0 ], [ -51.093525, -30.13818, 0.0 ], [ -51.097719, -30.131671, 0.0 ], [ -51.096959, -30.122254, 0.0 ], [ -51.09502, -30.119332, 0.0 ], [ -51.096156, -30.114822, 0.0 ], [ -51.100999, -30.11452, 0.0 ], [ -51.100772, -30.111169, 0.0 ], [ -51.102484, -30.109288, 0.0 ], [ -51.111995, -30.104268, 0.0 ], [ -51.110699, -30.092751, 0.0 ], [ -51.112014, -30.085758, 0.0 ], [ -51.113991, -30.085095, 0.0 ], [ -51.115554, -30.080049, 0.0 ], [ -51.120591, -30.077491, 0.0 ], [ -51.136721, -30.07552, 0.0 ], [ -51.137793, -30.076491, 0.0 ], [ -51.13585, -30.079915, 0.0 ], [ -51.137338, -30.081829, 0.0 ], [ -51.136547, -30.084545, 0.0 ], [ -51.139123, -30.084893, 0.0 ], [ -51.146839, -30.092114, 0.0 ], [ -51.148738, -30.090961, 0.0 ], [ -51.152179, -30.092607, 0.0 ], [ -51.15385, -30.096816, 0.0 ], [ -51.153975, -30.100807, 0.0 ], [ -51.148995, -30.103225, 0.0 ], [ -51.147342, -30.117707, 0.0 ], [ -51.142386, -30.119945, 0.0 ], [ -51.139664, -30.126442, 0.0 ], [ -51.142093, -30.132082, 0.0 ], [ -51.13132, -30.137091, 0.0 ], [ -51.118153, -30.138366, 0.0 ], [ -51.112101, -30.141079, 0.0 ], [ -51.107425, -30.138751, 0.0 ], [ -51.103057, -30.132822, 0.0 ], [ -51.097665, -30.13644, 0.0 ], [ -51.094401, -30.145098, 0.0 ], [ -51.088531, -30.17547, 0.0 ], [ -51.082683, -30.178973, 0.0 ], [ -51.078521, -30.17741, 0.0 ] ] ] } },
{ "type": "Feature", "properties": { "Name": "BOA VISTA DO SUL", "Description": "" }, "geometry": { "type": "Polygon", "coordinates": [ [ [ -51.163977, -30.262322, 0.0 ], [ -51.164033, -30.261665, 0.0 ], [ -51.170248, -30.263637, 0.0 ], [ -51.165116, -30.266191, 0.0 ], [ -51.16249, -30.264574, 0.0 ], [ -51.162372, -30.262184, 0.0 ], [ -51.163977, -30.262322, 0.0 ] ] ] } },
{ "type": "Feature", "properties": { "Name": "BOA VISTA DO SUL", "Description": "" }, "geometry": { "type": "Polygon", "coordinates": [ [ [ -51.114884, -30.205609, 0.0 ], [ -51.126864, -30.198782, 0.0 ], [ -51.13593, -30.205702, 0.0 ], [ -51.143946, -30.2045, 0.0 ], [ -51.146026, -30.210462, 0.0 ], [ -51.153169, -30.213175, 0.0 ], [ -51.16589, -30.229378, 0.0 ], [ -51.167098, -30.235957, 0.0 ], [ -51.167145, -30.237207, 0.0 ], [ -51.163944, -30.236695, 0.0 ], [ -51.154793, -30.240751, 0.0 ], [ -51.151487, -30.245687, 0.0 ], [ -51.152451, -30.248394, 0.0 ], [ -51.155042, -30.248557, 0.0 ], [ -51.154434, -30.252786, 0.0 ], [ -51.156954, -30.26087, 0.0 ], [ -51.159628, -30.261903, 0.0 ], [ -51.149944, -30.263371, 0.0 ], [ -51.142845, -30.265499, 0.0 ], [ -51.140539, -30.268056, 0.0 ], [ -51.133749, -30.269291, 0.0 ], [ -51.138108, -30.263756, 0.0 ], [ -51.135034, -30.257187, 0.0 ], [ -51.136265, -30.256399, 0.0 ], [ -51.134447, -30.255856, 0.0 ], [ -51.132353, -30.251413, 0.0 ], [ -51.133153, -30.250561, 0.0 ], [ -51.132072, -30.251186, 0.0 ], [ -51.127577, -30.247515, 0.0 ], [ -51.123841, -30.248208, 0.0 ], [ -51.122757, -30.24618, 0.0 ], [ -51.119195, -30.24586, 0.0 ], [ -51.119903, -30.23443, 0.0 ], [ -51.114242, -30.231243, 0.0 ], [ -51.112933, -30.219881, 0.0 ], [ -51.101118, -30.218669, 0.0 ], [ -51.107069, -30.214489, 0.0 ], [ -51.114884, -30.205609, 0.0 ] ] ] } },
{ "type": "Feature", "properties": { "Name": "ARQUIPÉLAGO", "Description": "" }, "geometry": { "type": "Polygon", "coordinates": [ [ [ -51.233579, -30.008061, 0.0 ], [ -51.23361, -30.008143, 0.0 ], [ -51.233448, -30.008153, 0.0 ], [ -51.233444, -30.008086, 0.0 ], [ -51.233579, -30.008061, 0.0 ] ] ] } },
{ "type": "Feature", "properties": { "Name": "ARQUIPÉLAGO", "Description": "" }, "geometry": { "type": "Polygon", "coordinates": [ [ [ -51.21976, -29.973461, 0.0 ], [ -51.219522, -29.974575, 0.0 ], [ -51.218985, -29.974877, 0.0 ], [ -51.218967, -29.974367, 0.0 ], [ -51.21976, -29.973461, 0.0 ] ] ] } },
{ "type": "Feature", "properties": { "Name": "ARQUIPÉLAGO", "Description": "" }, "geometry": { "type": "Polygon", "coordinates": [ [ [ -51.216612, -29.980511, 0.0 ], [ -51.21672, -29.980786, 0.0 ], [ -51.216507, -29.980949, 0.0 ], [ -51.216426, -29.980692, 0.0 ], [ -51.216612, -29.980511, 0.0 ] ] ] } },
{ "type": "Feature", "properties": { "Name": "ARQUIPÉLAGO", "Description": "" }, "geometry": { "type": "Polygon", "coordinates": [ [ [ -51.218518, -29.986148, 0.0 ], [ -51.219594, -29.985962, 0.0 ], [ -51.221749, -29.991673, 0.0 ], [ -51.220283, -29.992608, 0.0 ], [ -51.222117, -29.993251, 0.0 ], [ -51.22176, -30.007245, 0.0 ], [ -51.218747, -30.002993, 0.0 ], [ -51.222422, -30.016722, 0.0 ], [ -51.216871, -30.011115, 0.0 ], [ -51.210208, -29.994664, 0.0 ], [ -51.210937, -29.991175, 0.0 ], [ -51.218518, -29.986148, 0.0 ] ] ] } },
{ "type": "Feature", "properties": { "Name": "ARQUIPÉLAGO", "Description": "" }, "geometry": { "type": "Polygon", "coordinates": [ [ [ -51.210079, -29.964674, 0.0 ], [ -51.215378, -29.965942, 0.0 ], [ -51.217602, -29.968663, 0.0 ], [ -51.214872, -29.969062, 0.0 ], [ -51.213056, -29.980975, 0.0 ], [ -51.208263, -29.987131, 0.0 ], [ -51.208613, -29.982396, 0.0 ], [ -51.205662, -29.979074, 0.0 ], [ -51.202446, -29.970791, 0.0 ], [ -51.205878, -29.966436, 0.0 ], [ -51.210079, -29.964674, 0.0 ] ] ] } },
{ "type": "Feature", "properties": { "Name": "ARQUIPÉLAGO", "Description": "" }, "geometry": { "type": "Polygon", "coordinates": [ [ [ -51.224725, -29.961371, 0.0 ], [ -51.225706, -29.960951, 0.0 ], [ -51.224674, -29.964384, 0.0 ], [ -51.219613, -29.971254, 0.0 ], [ -51.224725, -29.961371, 0.0 ] ] ] } },
{ "type": "Feature", "properties": { "Name": "ARQUIPÉLAGO", "Description": "" }, "geometry": { "type": "Polygon", "coordinates": [ [ [ -51.255304, -29.957031, 0.0 ], [ -51.279981, -29.958728, 0.0 ], [ -51.290129, -29.964286, 0.0 ], [ -51.283008, -29.96891, 0.0 ], [ -51.277847, -29.978744, 0.0 ], [ -51.269392, -29.987391, 0.0 ], [ -51.264649, -29.998514, 0.0 ], [ -51.260707, -30.003787, 0.0 ], [ -51.257118, -30.006611, 0.0 ], [ -51.250693, -30.008254, 0.0 ], [ -51.24149, -30.003555, 0.0 ], [ -51.235373, -30.003064, 0.0 ], [ -51.240607, -29.998556, 0.0 ], [ -51.244856, -29.998561, 0.0 ], [ -51.247705, -30.000686, 0.0 ], [ -51.250253, -29.996181, 0.0 ], [ -51.248964, -29.989797, 0.0 ], [ -51.239522, -29.987518, 0.0 ], [ -51.239475, -29.981897, 0.0 ], [ -51.245722, -29.975845, 0.0 ], [ -51.252162, -29.977479, 0.0 ], [ -51.259807, -29.977067, 0.0 ], [ -51.264739, -29.976248, 0.0 ], [ -51.266852, -29.974238, 0.0 ], [ -51.251759, -29.976808, 0.0 ], [ -51.247803, -29.973955, 0.0 ], [ -51.243859, -29.967848, 0.0 ], [ -51.241183, -29.969909, 0.0 ], [ -51.241025, -29.978727, 0.0 ], [ -51.238107, -29.97991, 0.0 ], [ -51.236604, -29.967551, 0.0 ], [ -51.238956, -29.962004, 0.0 ], [ -51.251609, -29.959477, 0.0 ], [ -51.255304, -29.957031, 0.0 ] ] ] } },
{ "type": "Feature", "properties": { "Name": "ARQUIPÉLAGO", "Description": "" }, "geometry": { "type": "Polygon", "coordinates": [ [ [ -51.250271, -29.955383, 0.0 ], [ -51.254499, -29.95664, 0.0 ], [ -51.252046, -29.958894, 0.0 ], [ -51.238435, -29.96176, 0.0 ], [ -51.241974, -29.956879, 0.0 ], [ -51.250271, -29.955383, 0.0 ] ] ] } },
{ "type": "Feature", "properties": { "Name": "ARQUIPÉLAGO", "Description": "" }, "geometry": { "type": "Polygon", "coordinates": [ [ [ -51.269438, -29.939709, 0.0 ], [ -51.286335, -29.950667, 0.0 ], [ -51.29969, -29.952244, 0.0 ], [ -51.297755, -29.960734, 0.0 ], [ -51.291523, -29.962187, 0.0 ], [ -51.280357, -29.957486, 0.0 ], [ -51.249932, -29.954336, 0.0 ], [ -51.241802, -29.955948, 0.0 ], [ -51.236832, -29.96167, 0.0 ], [ -51.241702, -29.953948, 0.0 ], [ -51.252922, -29.944615, 0.0 ], [ -51.26076, -29.941205, 0.0 ], [ -51.268037, -29.941963, 0.0 ], [ -51.269438, -29.939709, 0.0 ] ] ] } },
{ "type": "Feature", "properties": { "Name": "ARQUIPÉLAGO", "Description": "" }, "geometry": { "type": "Polygon", "coordinates": [ [ [ -51.272643, -29.938247, 0.0 ], [ -51.276791, -29.939814, 0.0 ], [ -51.280147, -29.942845, 0.0 ], [ -51.278512, -29.942426, 0.0 ], [ -51.272643, -29.938247, 0.0 ] ] ] } },
{ "type": "Feature", "properties": { "Name": "ARQUIPÉLAGO", "Description": "" }, "geometry": { "type": "Polygon", "coordinates": [ [ [ -51.263478, -29.930794, 0.0 ], [ -51.267401, -29.930923, 0.0 ], [ -51.270694, -29.931781, 0.0 ], [ -51.265914, -29.932373, 0.0 ], [ -51.263478, -29.930794, 0.0 ] ] ] } },
{ "type": "Feature", "properties": { "Name": "SANTA TEREZA", "Description": "" }, "geometry": { "type": "Polygon", "coordinates": [ [ [ -51.213193, -30.074135, 0.0 ], [ -51.213022, -30.068502, 0.0 ], [ -51.219117, -30.060677, 0.0 ], [ -51.222958, -30.063241, 0.0 ], [ -51.224115, -30.067095, 0.0 ], [ -51.231609, -30.063201, 0.0 ], [ -51.241395, -30.074108, 0.0 ], [ -51.239656, -30.076262, 0.0 ], [ -51.23505, -30.077662, 0.0 ], [ -51.234125, -30.08115, 0.0 ], [ -51.231073, -30.082836, 0.0 ], [ -51.232182, -30.084606, 0.0 ], [ -51.227959, -30.086689, 0.0 ], [ -51.214559, -30.076738, 0.0 ], [ -51.214827, -30.074659, 0.0 ], [ -51.213193, -30.074135, 0.0 ] ] ] } },
{ "type": "Feature", "properties": { "Name": "CHÁCARA DAS PEDRAS", "Description": "" }, "geometry": { "type": "Polygon", "coordinates": [ [ [ -51.158694, -30.028441, 0.0 ], [ -51.165845, -30.028131, 0.0 ], [ -51.169311, -30.040966, 0.0 ], [ -51.158756, -30.039947, 0.0 ], [ -51.158694, -30.028441, 0.0 ] ] ] } },
{ "type": "Feature", "properties": { "Name": "TRÊS FIGUEIRAS", "Description": "" }, "geometry": { "type": "Polygon", "coordinates": [ [ [ -51.165845, -30.028131, 0.0 ], [ -51.173647, -30.02748, 0.0 ], [ -51.18091, -30.029487, 0.0 ], [ -51.177343, -30.035098, 0.0 ], [ -51.169722, -30.041022, 0.0 ], [ -51.167846, -30.038819, 0.0 ], [ -51.165845, -30.028131, 0.0 ] ] ] } },
{ "type": "Feature", "properties": { "Name": "JARDIM SABARÁ", "Description": "" }, "geometry": { "type": "Polygon", "coordinates": [ [ [ -51.133598, -30.030606, 0.0 ], [ -51.13926, -30.029646, 0.0 ], [ -51.138793, -30.027558, 0.0 ], [ -51.147144, -30.027329, 0.0 ], [ -51.149747, -30.041737, 0.0 ], [ -51.141673, -30.044021, 0.0 ], [ -51.135747, -30.042582, 0.0 ], [ -51.135046, -30.032821, 0.0 ], [ -51.133598, -30.030606, 0.0 ] ] ] } },
{ "type": "Feature", "properties": { "Name": "MEDIANEIRA", "Description": "" }, "geometry": { "type": "Polygon", "coordinates": [ [ [ -51.213308, -30.058214, 0.0 ], [ -51.219117, -30.060677, 0.0 ], [ -51.213022, -30.068502, 0.0 ], [ -51.213193, -30.074135, 0.0 ], [ -51.210435, -30.072474, 0.0 ], [ -51.21118, -30.070078, 0.0 ], [ -51.202659, -30.068921, 0.0 ], [ -51.201901, -30.064722, 0.0 ], [ -51.20615, -30.063524, 0.0 ], [ -51.208334, -30.058885, 0.0 ], [ -51.211684, -30.061774, 0.0 ], [ -51.213308, -30.058214, 0.0 ] ] ] } },
{ "type": "Feature", "properties": { "Name": "SANTO ANTÔNIO", "Description": "" }, "geometry": { "type": "Polygon", "coordinates": [ [ [ -51.204702, -30.052796, 0.0 ], [ -51.208653, -30.05138, 0.0 ], [ -51.211797, -30.053535, 0.0 ], [ -51.20615, -30.063524, 0.0 ], [ -51.199188, -30.065212, 0.0 ], [ -51.195146, -30.058099, 0.0 ], [ -51.204702, -30.052796, 0.0 ] ] ] } },
{ "type": "Feature", "properties": { "Name": "JARDIM BOTÂNICO", "Description": "" }, "geometry": { "type": "Polygon", "coordinates": [ [ [ -51.182188, -30.046743, 0.0 ], [ -51.183657, -30.046508, 0.0 ], [ -51.184529, -30.050658, 0.0 ], [ -51.190056, -30.048984, 0.0 ], [ -51.195142, -30.050424, 0.0 ], [ -51.192019, -30.054012, 0.0 ], [ -51.1816, -30.058938, 0.0 ], [ -51.169151, -30.055756, 0.0 ], [ -51.172486, -30.047596, 0.0 ], [ -51.182188, -30.046743, 0.0 ] ] ] } },
{ "type": "Feature", "properties": { "Name": "MENINO DEUS", "Description": "" }, "geometry": { "type": "Polygon", "coordinates": [ [ [ -51.220919, -30.043926, 0.0 ], [ -51.227782, -30.043132, 0.0 ], [ -51.228826, -30.054534, 0.0 ], [ -51.231609, -30.063201, 0.0 ], [ -51.224115, -30.067095, 0.0 ], [ -51.222895, -30.063176, 0.0 ], [ -51.216768, -30.059589, 0.0 ], [ -51.21813, -30.057286, 0.0 ], [ -51.21849, -30.04678, 0.0 ], [ -51.220919, -30.043926, 0.0 ] ] ] } },
{ "type": "Feature", "properties": { "Name": "AZENHA", "Description": "" }, "geometry": { "type": "Polygon", "coordinates": [ [ [ -51.208477, -30.051425, 0.0 ], [ -51.216381, -30.041186, 0.0 ], [ -51.220838, -30.04378, 0.0 ], [ -51.21849, -30.04678, 0.0 ], [ -51.21813, -30.057286, 0.0 ], [ -51.216768, -30.059589, 0.0 ], [ -51.213448, -30.058026, 0.0 ], [ -51.211684, -30.061774, 0.0 ], [ -51.208334, -30.058885, 0.0 ], [ -51.211797, -30.053535, 0.0 ], [ -51.208477, -30.051425, 0.0 ] ] ] } },
{ "type": "Feature", "properties": { "Name": "SANTA CECÍLIA", "Description": "" }, "geometry": { "type": "Polygon", "coordinates": [ [ [ -51.195908, -30.040289, 0.0 ], [ -51.204794, -30.037496, 0.0 ], [ -51.208323, -30.036947, 0.0 ], [ -51.207009, -30.044072, 0.0 ], [ -51.200822, -30.043382, 0.0 ], [ -51.197826, -30.046579, 0.0 ], [ -51.195908, -30.040289, 0.0 ] ] ] } },
{ "type": "Feature", "properties": { "Name": "SANTANA", "Description": "" }, "geometry": { "type": "Polygon", "coordinates": [ [ [ -51.207164, -30.04386, 0.0 ], [ -51.208323, -30.036947, 0.0 ], [ -51.216381, -30.041186, 0.0 ], [ -51.208477, -30.051425, 0.0 ], [ -51.204702, -30.052796, 0.0 ], [ -51.196524, -30.048442, 0.0 ], [ -51.20019, -30.043602, 0.0 ], [ -51.207164, -30.04386, 0.0 ] ] ] } },
{ "type": "Feature", "properties": { "Name": "PRAIA DE BELAS", "Description": "" }, "geometry": { "type": "Polygon", "coordinates": [ [ [ -51.240986, -30.035891, 0.0 ], [ -51.242137, -30.035458, 0.0 ], [ -51.241558, -30.041679, 0.0 ], [ -51.235279, -30.044425, 0.0 ], [ -51.237822, -30.047041, 0.0 ], [ -51.23521, -30.045185, 0.0 ], [ -51.234925, -30.046974, 0.0 ], [ -51.232815, -30.04715, 0.0 ], [ -51.234127, -30.047771, 0.0 ], [ -51.234423, -30.058381, 0.0 ], [ -51.239877, -30.063301, 0.0 ], [ -51.242305, -30.073049, 0.0 ], [ -51.241395, -30.074108, 0.0 ], [ -51.231709, -30.063442, 0.0 ], [ -51.227363, -30.04606, 0.0 ], [ -51.228376, -30.038723, 0.0 ], [ -51.240986, -30.035891, 0.0 ] ] ] } },
{ "type": "Feature", "properties": { "Name": "CIDADE BAIXA", "Description": "" }, "geometry": { "type": "Polygon", "coordinates": [ [ [ -51.216381, -30.041186, 0.0 ], [ -51.221296, -30.034748, 0.0 ], [ -51.228376, -30.038723, 0.0 ], [ -51.227782, -30.043132, 0.0 ], [ -51.220919, -30.043926, 0.0 ], [ -51.216381, -30.041186, 0.0 ] ] ] } }
]
}
